{"type":"FeatureCollection","features":[{"type":"Feature","properties":{"oid":"way/160458238"},"geometry":{"type":"Polygon","coordinates":[[[114.094992,22.551674],[114.093459,22.551654],[114.093478,22.550574],[114.093598,22.550576],[114.093599,22.550476],[114.093948,22.55048],[114.093952,22.550508],[114.094145,22.550503],[114.09414,22.550417],[114.094789,22.550426],[114.094781,22.550742],[114.095,22.550749],[114.094992,22.551674]]]}},{"type":"Feature","properties":{"oid":"way/170144295"},"geometry":{"type":"Polygon","coordinates":[[[114.079577,22.537928],[114.079572,22.537409],[114.079931,22.537412],[114.079923,22.537929],[114.079577,22.537928]]]}},{"type":"Feature","properties":{"oid":"way/171607610"},"geometry":{"type":"Polygon","coordinates":[[[114.089009,22.551209],[114.089023,22.550439],[114.089511,22.550446],[114.089506,22.551078],[114.089055,22.551075],[114.089053,22.55121],[114.089009,22.551209]]]}},{"type":"Feature","properties":{"oid":"way/177228964"},"geometry":{"type":"Polygon","coordinates":[[[114.090133,22.539865],[114.090142,22.53927],[114.090468,22.539274],[114.090459,22.539869],[114.090133,22.539865]]]}},{"type":"Feature","properties":{"oid":"way/178426795"},"geometry":{"type":"Polygon","coordinates":[[[114.099366,22.544397],[114.099312,22.547976],[114.099239,22.548064],[114.099172,22.54807],[114.099052,22.54811],[114.098925,22.548177],[114.098843,22.548263],[114.09881,22.548351],[114.098787,22.548466],[114.09879,22.54857],[114.098815,22.548651],[114.098858,22.548705],[114.09892,22.548722],[114.098971,22.548748],[114.098993,22.548794],[114.098996,22.549025],[114.09927,22.549028],[114.099306,22.549028],[114.0993,22.549701],[114.099279,22.55029],[114.098647,22.550284],[114.098522,22.55029],[114.09839,22.55033],[114.098253,22.550412],[114.098032,22.550507],[114.09786,22.550552],[114.097677,22.550654],[114.097523,22.550749],[114.097286,22.550788],[114.09728,22.551108],[114.097267,22.551694],[114.095457,22.551672],[114.094992,22.551674],[114.095,22.550749],[114.094781,22.550748],[114.094781,22.550742],[114.094789,22.550426],[114.09414,22.550417],[114.094145,22.550503],[114.093952,22.550508],[114.093948,22.55048],[114.093599,22.550476],[114.093597,22.55037],[114.093653,22.549921],[114.093954,22.549931],[114.094153,22.549427],[114.094157,22.549259],[114.0944,22.549256],[114.095092,22.548735],[114.095418,22.548302],[114.095571,22.547894],[114.095527,22.547564],[114.095397,22.547384],[114.095244,22.547244],[114.095247,22.546583],[114.095315,22.54645],[114.095478,22.5464],[114.095767,22.546331],[114.095981,22.546296],[114.097391,22.545877],[114.09753,22.545793],[114.097716,22.545648],[114.097845,22.545519],[114.097966,22.54532],[114.098006,22.545157],[114.098013,22.544555],[114.098102,22.544538],[114.098152,22.544515],[114.098183,22.544473],[114.098188,22.544411],[114.098202,22.543722],[114.098606,22.543731],[114.098599,22.54407],[114.098678,22.544148],[114.09892,22.544385],[114.098937,22.544401],[114.099232,22.544394],[114.099243,22.544394],[114.099366,22.544397]]]}},{"type":"Feature","properties":{"oid":"way/182033934"},"geometry":{"type":"Polygon","coordinates":[[[114.090749,22.553986],[114.090366,22.553985],[114.090388,22.553016],[114.090401,22.552455],[114.090322,22.552357],[114.090083,22.552354],[114.09009,22.551929],[114.090633,22.551931],[114.090681,22.551953],[114.090808,22.552134],[114.090826,22.552393],[114.090804,22.552575],[114.090852,22.552883],[114.090821,22.553908],[114.09079,22.553961],[114.090749,22.553986]]]}},{"type":"Feature","properties":{"oid":"way/256010012"},"geometry":{"type":"Polygon","coordinates":[[[114.086149,22.552344],[114.086148,22.552921],[114.08583,22.552921],[114.08583,22.552344],[114.086149,22.552344]]]}},{"type":"Feature","properties":{"oid":"way/331051167"},"geometry":{"type":"Polygon","coordinates":[[[114.085155,22.552669],[114.085311,22.552888],[114.085154,22.552802],[114.085155,22.552669]]]}},{"type":"Feature","properties":{"oid":"way/331070984"},"geometry":{"type":"Polygon","coordinates":[[[114.085381,22.552257],[114.085381,22.552157],[114.08552,22.552158],[114.08552,22.552258],[114.085381,22.552257]]]}},{"type":"Feature","properties":{"oid":"way/331070985"},"geometry":{"type":"Polygon","coordinates":[[[114.085548,22.552807],[114.08555,22.552559],[114.085691,22.55256],[114.085689,22.552808],[114.085548,22.552807]]]}},{"type":"Feature","properties":{"oid":"way/331070988"},"geometry":{"type":"Polygon","coordinates":[[[114.085264,22.552345],[114.085265,22.552183],[114.085351,22.552184],[114.085349,22.552345],[114.085264,22.552345]]]}},{"type":"Feature","properties":{"oid":"way/332091235"},"geometry":{"type":"Polygon","coordinates":[[[114.085233,22.55233],[114.085178,22.552329],[114.085179,22.552209],[114.085234,22.552209],[114.085233,22.55233]]]}},{"type":"Feature","properties":{"oid":"way/476254614"},"geometry":{"type":"Polygon","coordinates":[[[114.085032,22.542422],[114.085036,22.542278],[114.085303,22.542285],[114.085298,22.542429],[114.085032,22.542422]]]}},{"type":"Feature","properties":{"oid":"way/527641733"},"geometry":{"type":"Polygon","coordinates":[[[114.092773,22.543619],[114.093046,22.543622],[114.093194,22.543772],[114.093255,22.5438],[114.093255,22.544021],[114.093643,22.544019],[114.093642,22.543818],[114.09371,22.543793],[114.093786,22.54373],[114.093831,22.54366],[114.095021,22.543668],[114.09507,22.543713],[114.095067,22.54387],[114.0944,22.54386],[114.094252,22.543965],[114.094092,22.543965],[114.094092,22.544056],[114.093983,22.544147],[114.093966,22.545449],[114.09274,22.545436],[114.092746,22.544906],[114.092773,22.543619]]]}},{"type":"Feature","properties":{"oid":"way/638406327"},"geometry":{"type":"Polygon","coordinates":[[[114.095799,22.539423],[114.095804,22.538917],[114.096457,22.538924],[114.096451,22.53943],[114.095799,22.539423]]]}},{"type":"Feature","properties":{"oid":"way/638532483"},"geometry":{"type":"Polygon","coordinates":[[[114.087279,22.552876],[114.087284,22.552618],[114.087439,22.552621],[114.087433,22.552879],[114.087279,22.552876]]]}},{"type":"Feature","properties":{"oid":"way/643527694"},"geometry":{"type":"Polygon","coordinates":[[[114.085373,22.552803],[114.085375,22.552555],[114.085515,22.552556],[114.085513,22.552804],[114.085373,22.552803]]]}},{"type":"Feature","properties":{"oid":"way/643527695"},"geometry":{"type":"Polygon","coordinates":[[[114.085377,22.552529],[114.085379,22.552281],[114.08552,22.552282],[114.085518,22.55253],[114.085377,22.552529]]]}},{"type":"Feature","properties":{"oid":"way/643527696"},"geometry":{"type":"Polygon","coordinates":[[[114.085552,22.55253],[114.085554,22.552283],[114.085694,22.552284],[114.085692,22.552531],[114.085552,22.55253]]]}},{"type":"Feature","properties":{"oid":"way/643527697"},"geometry":{"type":"Polygon","coordinates":[[[114.085256,22.552622],[114.085257,22.552461],[114.085342,22.552461],[114.085341,22.552623],[114.085256,22.552622]]]}},{"type":"Feature","properties":{"oid":"way/643527698"},"geometry":{"type":"Polygon","coordinates":[[[114.085228,22.552583],[114.085173,22.552583],[114.085174,22.552462],[114.085229,22.552463],[114.085228,22.552583]]]}},{"type":"Feature","properties":{"oid":"way/643527699"},"geometry":{"type":"Polygon","coordinates":[[[114.085555,22.552256],[114.085555,22.552156],[114.085694,22.552157],[114.085694,22.552257],[114.085555,22.552256]]]}},{"type":"Feature","properties":{"oid":"way/643527700"},"geometry":{"type":"Polygon","coordinates":[[[114.08521,22.552256],[114.08521,22.552156],[114.085349,22.552157],[114.085349,22.552257],[114.08521,22.552256]]]}},{"type":"Feature","properties":{"oid":"way/664026052"},"geometry":{"type":"Polygon","coordinates":[[[114.091356,22.548828],[114.091356,22.548409],[114.09137,22.548316],[114.091434,22.548248],[114.091521,22.548204],[114.091639,22.548188],[114.09175,22.5482],[114.091821,22.548236],[114.091866,22.548314],[114.091876,22.548423],[114.091878,22.548616],[114.091878,22.548746],[114.091876,22.548826],[114.091826,22.548908],[114.091745,22.548962],[114.091607,22.548987],[114.091511,22.548967],[114.091432,22.548944],[114.091375,22.548899],[114.091356,22.548828]]]}},{"type":"Feature","properties":{"oid":"way/691162557"},"geometry":{"type":"Polygon","coordinates":[[[114.087284,22.552601],[114.08729,22.552343],[114.087444,22.552346],[114.087439,22.552604],[114.087284,22.552601]]]}},{"type":"Feature","properties":{"oid":"way/691162560"},"geometry":{"type":"Polygon","coordinates":[[[114.086833,22.55277],[114.086841,22.552347],[114.087152,22.552352],[114.087144,22.552775],[114.086833,22.55277]]]}},{"type":"Feature","properties":{"oid":"way/771790233"},"geometry":{"type":"Polygon","coordinates":[[[114.090912,22.550866],[114.090913,22.551488],[114.090875,22.551557],[114.090826,22.551602],[114.090757,22.551616],[114.090647,22.551612],[114.090318,22.551608],[114.09032,22.551464],[114.090396,22.551465],[114.090406,22.550864],[114.090912,22.550866]]]}},{"type":"Feature","properties":{"oid":"way/771790285"},"geometry":{"type":"Polygon","coordinates":[[[114.092271,22.552916],[114.092277,22.552481],[114.0923,22.552464],[114.092642,22.55247],[114.092669,22.552495],[114.092662,22.552917],[114.09263,22.552946],[114.092292,22.552942],[114.092271,22.552916]]]}},{"type":"Feature","properties":{"oid":"way/963356202"},"geometry":{"type":"Polygon","coordinates":[[[114.09123,22.553984],[114.091262,22.55213],[114.091273,22.552088],[114.091425,22.551945],[114.09146,22.551927],[114.091744,22.551931],[114.09174,22.552125],[114.091814,22.552126],[114.091781,22.554035],[114.091266,22.554029],[114.09123,22.553984]]]}},{"type":"Feature","properties":{"oid":"way/1239038566"},"geometry":{"type":"Polygon","coordinates":[[[114.094652,22.545879],[114.094654,22.545739],[114.094922,22.545742],[114.09492,22.545882],[114.094652,22.545879]]]}},{"type":"Feature","properties":{"oid":"way/1239038574"},"geometry":{"type":"Polygon","coordinates":[[[114.095428,22.545481],[114.095431,22.545134],[114.095434,22.545104],[114.095447,22.54508],[114.095468,22.545067],[114.095496,22.54506],[114.095523,22.545061],[114.0959,22.545064],[114.095902,22.544837],[114.095968,22.544838],[114.09596,22.545487],[114.095428,22.545481]]]}},{"type":"Feature","properties":{"oid":"way/1239038575"},"geometry":{"type":"Polygon","coordinates":[[[114.095993,22.545616],[114.096011,22.544838],[114.096231,22.54484],[114.096226,22.544959],[114.096171,22.545056],[114.09617,22.545232],[114.096253,22.545234],[114.096253,22.545293],[114.096353,22.545295],[114.096353,22.545338],[114.096374,22.545338],[114.096397,22.545389],[114.096397,22.545509],[114.09646,22.545512],[114.096487,22.545543],[114.096486,22.545602],[114.09647,22.545601],[114.096471,22.545568],[114.096106,22.545566],[114.096106,22.54563],[114.096014,22.54563],[114.095993,22.545616]]]}},{"type":"Feature","properties":{"oid":"way/1239366714"},"geometry":{"type":"Polygon","coordinates":[[[114.092773,22.543619],[114.092746,22.544906],[114.0925,22.544904],[114.092496,22.5452],[114.092229,22.5452],[114.092131,22.54517],[114.092071,22.545107],[114.092026,22.545012],[114.091992,22.544841],[114.091882,22.54442],[114.091845,22.544374],[114.091419,22.544371],[114.091423,22.543898],[114.091476,22.543748],[114.091536,22.543657],[114.091635,22.543608],[114.092773,22.543619]]]}},{"type":"Feature","properties":{"oid":"way/1252773717"},"geometry":{"type":"Polygon","coordinates":[[[114.094538,22.54425],[114.094551,22.543961],[114.094743,22.543968],[114.094731,22.544257],[114.094538,22.54425]]]}},{"type":"Feature","properties":{"oid":"way/1252773718"},"geometry":{"type":"Polygon","coordinates":[[[114.094731,22.544257],[114.094743,22.543968],[114.094927,22.543974],[114.094915,22.544264],[114.094731,22.544257]]]}},{"type":"Feature","properties":{"oid":"way/1258089071"},"geometry":{"type":"Polygon","coordinates":[[[114.09281,22.539382],[114.092818,22.539116],[114.093,22.53912],[114.092992,22.539386],[114.09281,22.539382]]]}},{"type":"Feature","properties":{"oid":"way/1258089074"},"geometry":{"type":"Polygon","coordinates":[[[114.093682,22.5394],[114.09369,22.539134],[114.093872,22.539139],[114.093864,22.539405],[114.093682,22.5394]]]}},{"type":"Feature","properties":{"oid":"way/1258089076"},"geometry":{"type":"Polygon","coordinates":[[[114.088755,22.53855],[114.088757,22.538397],[114.089036,22.538399],[114.089035,22.538551],[114.088755,22.53855]]]}},{"type":"Feature","properties":{"oid":"way/1258089077"},"geometry":{"type":"Polygon","coordinates":[[[114.088757,22.538397],[114.088759,22.538241],[114.089038,22.538245],[114.089036,22.538399],[114.088757,22.538397]]]}},{"type":"Feature","properties":{"oid":"way/1258089078"},"geometry":{"type":"Polygon","coordinates":[[[114.088759,22.538241],[114.088761,22.538085],[114.089041,22.538088],[114.089038,22.538245],[114.088759,22.538241]]]}},{"type":"Feature","properties":{"oid":"way/1258137629"},"geometry":{"type":"Polygon","coordinates":[[[114.090211,22.539537],[114.090211,22.539446],[114.090407,22.539445],[114.090407,22.539536],[114.090211,22.539537]]]}},{"type":"Feature","properties":{"oid":"way/1258137630"},"geometry":{"type":"Polygon","coordinates":[[[114.090214,22.539712],[114.090213,22.539621],[114.090409,22.53962],[114.09041,22.539711],[114.090214,22.539712]]]}},{"type":"Feature","properties":{"oid":"way/1271397225"},"geometry":{"type":"Polygon","coordinates":[[[114.08532,22.538412],[114.085601,22.538416],[114.085599,22.538548],[114.085318,22.538544],[114.08532,22.538412]]]}},{"type":"Feature","properties":{"oid":"way/1271397226"},"geometry":{"type":"Polygon","coordinates":[[[114.08532,22.538555],[114.085601,22.538558],[114.085599,22.53869],[114.085318,22.538686],[114.08532,22.538555]]]}},{"type":"Feature","properties":{"oid":"way/1271397227"},"geometry":{"type":"Polygon","coordinates":[[[114.085319,22.538708],[114.0856,22.538712],[114.085598,22.538844],[114.085317,22.53884],[114.085319,22.538708]]]}},{"type":"Feature","properties":{"oid":"way/1271397260"},"geometry":{"type":"Polygon","coordinates":[[[114.082362,22.539625],[114.082537,22.539625],[114.082537,22.539883],[114.082362,22.539883],[114.082362,22.539625]]]}},{"type":"Feature","properties":{"oid":"way/1363506054"},"geometry":{"type":"Polygon","coordinates":[[[114.095576,22.550636],[114.095633,22.550616],[114.095821,22.550616],[114.095941,22.550594],[114.096006,22.550594],[114.096075,22.550618],[114.096129,22.550621],[114.096168,22.550605],[114.096083,22.550703],[114.09585,22.550784],[114.095641,22.550844],[114.09556,22.550698],[114.095576,22.550636]]]}},{"type":"Feature","properties":{"oid":"way/1363506055"},"geometry":{"type":"Polygon","coordinates":[[[114.096124,22.551352],[114.09614,22.551275],[114.09614,22.551186],[114.096116,22.551171],[114.095957,22.551151],[114.095936,22.551134],[114.095955,22.55104],[114.095955,22.55097],[114.095936,22.550903],[114.095912,22.550883],[114.095882,22.550876],[114.096196,22.550757],[114.096373,22.550576],[114.096504,22.55047],[114.096496,22.550544],[114.096636,22.550752],[114.096647,22.550888],[114.096657,22.55095],[114.096655,22.551022],[114.096612,22.551153],[114.096604,22.55128],[114.096568,22.551245],[114.096525,22.551218],[114.096477,22.551199],[114.096427,22.551188],[114.0964,22.551186],[114.096374,22.551187],[114.096322,22.551194],[114.096272,22.55121],[114.096234,22.55123],[114.096199,22.551254],[114.096169,22.551283],[114.096144,22.551316],[114.096124,22.551352]]]}},{"type":"Feature","properties":{"oid":"way/1363506058"},"geometry":{"type":"Polygon","coordinates":[[[114.094406,22.549258],[114.095096,22.548738],[114.095422,22.548305],[114.095576,22.547894],[114.095532,22.547563],[114.095401,22.547381],[114.095248,22.547242],[114.09523,22.546587],[114.09527,22.546439],[114.095323,22.546398],[114.095426,22.546374],[114.097393,22.545881],[114.097533,22.545797],[114.097719,22.545651],[114.097849,22.545521],[114.09797,22.545322],[114.098011,22.545158],[114.098018,22.544558],[114.098103,22.544542],[114.098155,22.544518],[114.098188,22.544475],[114.098193,22.544412],[114.098207,22.543726],[114.098601,22.543735],[114.098594,22.544071],[114.09863,22.544136],[114.098665,22.544218],[114.098377,22.544215],[114.098364,22.544215],[114.098337,22.544481],[114.098198,22.544624],[114.09809,22.545197],[114.097949,22.54553],[114.097779,22.545714],[114.097688,22.545893],[114.097669,22.546123],[114.097655,22.546149],[114.09762,22.546175],[114.097574,22.546192],[114.097509,22.546184],[114.097479,22.546158],[114.097435,22.546145],[114.097336,22.546164],[114.097133,22.546225],[114.096896,22.546317],[114.096457,22.546578],[114.096459,22.546667],[114.096323,22.54669],[114.096278,22.54669],[114.096257,22.546672],[114.096224,22.54658],[114.096159,22.546559],[114.095877,22.546561],[114.09588,22.546594],[114.095647,22.546604],[114.095647,22.546634],[114.095611,22.546641],[114.095464,22.547247],[114.095529,22.547285],[114.095654,22.547424],[114.095744,22.547645],[114.095682,22.548018],[114.09558,22.54824],[114.095372,22.548466],[114.095192,22.548777],[114.095102,22.548921],[114.094959,22.548978],[114.094839,22.549124],[114.094461,22.549409],[114.094406,22.549258]]]}},{"type":"Feature","properties":{"oid":"way/1363506060"},"geometry":{"type":"Polygon","coordinates":[[[114.096208,22.547865],[114.096169,22.547925],[114.096015,22.547951],[114.095976,22.54795],[114.095883,22.547898],[114.095865,22.547855],[114.095936,22.547652],[114.095968,22.547543],[114.095948,22.547444],[114.095928,22.547347],[114.095953,22.547192],[114.096012,22.547131],[114.096176,22.54699],[114.096227,22.54691],[114.096261,22.546862],[114.096311,22.546827],[114.096399,22.546789],[114.096458,22.546766],[114.096516,22.546759],[114.096529,22.546813],[114.096536,22.546884],[114.096547,22.547022],[114.096571,22.547151],[114.096548,22.547333],[114.096503,22.547459],[114.09655,22.547526],[114.096458,22.547611],[114.09641,22.54763],[114.09628,22.547651],[114.096255,22.54767],[114.096208,22.547865]]]}},{"type":"Feature","properties":{"oid":"way/1363506062"},"geometry":{"type":"Polygon","coordinates":[[[114.095464,22.549934],[114.095477,22.549937],[114.095652,22.549937],[114.095711,22.549947],[114.095847,22.550021],[114.095888,22.550026],[114.095955,22.550026],[114.096003,22.550009],[114.096075,22.550086],[114.096,22.550143],[114.096006,22.550202],[114.095893,22.550141],[114.095698,22.550058],[114.095515,22.550017],[114.095442,22.550021],[114.095464,22.549934]]]}},{"type":"Feature","properties":{"oid":"way/1363506064"},"geometry":{"type":"Polygon","coordinates":[[[114.095285,22.550188],[114.095181,22.550129],[114.09508,22.550123],[114.095126,22.550041],[114.095442,22.550047],[114.095536,22.550046],[114.09578,22.550119],[114.095951,22.550197],[114.09601,22.550242],[114.096011,22.550257],[114.095992,22.550277],[114.095898,22.550291],[114.095662,22.550296],[114.095507,22.550319],[114.095493,22.550309],[114.095466,22.550192],[114.095434,22.550128],[114.095365,22.550088],[114.095295,22.550076],[114.095236,22.550081],[114.09523,22.550106],[114.095285,22.550188]]]}},{"type":"Feature","properties":{"oid":"way/1363506068"},"geometry":{"type":"Polygon","coordinates":[[[114.095574,22.548933],[114.095573,22.548979],[114.095538,22.549037],[114.095478,22.549118],[114.095454,22.549255],[114.095467,22.549334],[114.095545,22.549428],[114.095544,22.549448],[114.095482,22.549554],[114.095494,22.549636],[114.095523,22.549692],[114.095557,22.549714],[114.095634,22.549719],[114.095758,22.549727],[114.09581,22.549711],[114.095834,22.549651],[114.095764,22.54956],[114.095758,22.549537],[114.095769,22.549471],[114.09579,22.549437],[114.095909,22.549366],[114.095929,22.549441],[114.096039,22.549432],[114.096055,22.549294],[114.096274,22.549284],[114.096509,22.549016],[114.096615,22.548609],[114.096571,22.548319],[114.096546,22.54807],[114.096577,22.547918],[114.096625,22.547791],[114.096665,22.547797],[114.096724,22.547822],[114.096778,22.547871],[114.096775,22.547898],[114.096759,22.547933],[114.096749,22.547995],[114.0968,22.548604],[114.096655,22.548822],[114.096521,22.5491],[114.096336,22.54935],[114.096327,22.54937],[114.09622,22.549392],[114.096226,22.549558],[114.096271,22.549568],[114.096266,22.549803],[114.09626,22.549826],[114.096234,22.54987],[114.096156,22.549927],[114.096134,22.549932],[114.096003,22.550009],[114.095955,22.550026],[114.095888,22.550026],[114.095847,22.550021],[114.095711,22.549947],[114.095652,22.549937],[114.095477,22.549937],[114.095464,22.549934],[114.09545,22.54993],[114.095429,22.549917],[114.095389,22.549895],[114.095316,22.549836],[114.095322,22.54965],[114.09531,22.549608],[114.095298,22.549458],[114.095287,22.549417],[114.095248,22.54935],[114.095249,22.549312],[114.095299,22.549227],[114.095382,22.549136],[114.095402,22.549102],[114.095414,22.549064],[114.095532,22.548921],[114.095574,22.548933]]]}},{"type":"Feature","properties":{"oid":"way/1363506069"},"geometry":{"type":"Polygon","coordinates":[[[114.095576,22.550636],[114.095499,22.550574],[114.09548,22.550542],[114.095483,22.550509],[114.095499,22.550487],[114.095469,22.550428],[114.09534,22.550319],[114.095324,22.550247],[114.095285,22.550188],[114.09523,22.550106],[114.095236,22.550081],[114.095295,22.550076],[114.095365,22.550088],[114.095434,22.550128],[114.095466,22.550192],[114.095493,22.550309],[114.095507,22.550319],[114.095662,22.550296],[114.095898,22.550291],[114.095992,22.550277],[114.096011,22.550257],[114.09601,22.550242],[114.096006,22.550202],[114.096,22.550143],[114.096075,22.550086],[114.096228,22.550039],[114.096255,22.550046],[114.096346,22.550123],[114.096416,22.550324],[114.096419,22.550361],[114.096405,22.550425],[114.096384,22.550465],[114.096333,22.550509],[114.096295,22.550524],[114.096201,22.550591],[114.096168,22.550605],[114.096129,22.550621],[114.096075,22.550618],[114.096006,22.550594],[114.095941,22.550594],[114.095821,22.550616],[114.095633,22.550616],[114.095576,22.550636]]]}},{"type":"Feature","properties":{"oid":"way/1363506070"},"geometry":{"type":"Polygon","coordinates":[[[114.094493,22.549925],[114.094616,22.549873],[114.094662,22.549831],[114.094683,22.549741],[114.094756,22.549685],[114.094815,22.549593],[114.09485,22.549392],[114.095284,22.549048],[114.095357,22.548944],[114.095357,22.548914],[114.09545,22.548902],[114.095196,22.549353],[114.095021,22.549496],[114.094903,22.549615],[114.094833,22.549709],[114.094815,22.549769],[114.09485,22.549863],[114.095048,22.54995],[114.095056,22.549994],[114.095048,22.550029],[114.095027,22.550044],[114.094927,22.550051],[114.094884,22.550128],[114.094825,22.550143],[114.094614,22.550056],[114.094493,22.549925]]]}},{"type":"Feature","properties":{"oid":"way/1363506071"},"geometry":{"type":"Polygon","coordinates":[[[114.094162,22.549666],[114.094125,22.549637],[114.094152,22.549524],[114.094217,22.549459],[114.094318,22.549392],[114.094383,22.54939],[114.094463,22.549452],[114.094487,22.549464],[114.094616,22.549479],[114.094734,22.549474],[114.094724,22.549519],[114.094662,22.549672],[114.094611,22.549737],[114.094605,22.549746],[114.094428,22.549885],[114.094264,22.549779],[114.094225,22.549701],[114.094162,22.549666]]]}},{"type":"Feature","properties":{"oid":"way/1363506073"},"geometry":{"type":"Polygon","coordinates":[[[114.095568,22.551456],[114.095542,22.551354],[114.095555,22.551285],[114.095563,22.551094],[114.095582,22.551035],[114.095614,22.550995],[114.095673,22.550945],[114.095882,22.550876],[114.095912,22.550883],[114.095936,22.550903],[114.095955,22.55097],[114.095955,22.55104],[114.095936,22.551134],[114.095957,22.551151],[114.096116,22.551171],[114.09614,22.551186],[114.09614,22.551275],[114.096124,22.551352],[114.096161,22.551414],[114.096153,22.551466],[114.096118,22.551513],[114.096091,22.551525],[114.096014,22.55154],[114.095882,22.55155],[114.095839,22.551562],[114.09577,22.551562],[114.095689,22.551495],[114.095568,22.551456]]]}},{"type":"Feature","properties":{"oid":"way/1380975058"},"geometry":{"type":"Polygon","coordinates":[[[114.093524,22.547884],[114.09376,22.547551],[114.093758,22.547531],[114.09354,22.547406],[114.093418,22.547294],[114.093498,22.54725],[114.093583,22.547175],[114.093639,22.547093],[114.09367,22.546987],[114.0937,22.546928],[114.093732,22.546884],[114.093776,22.546856],[114.093864,22.546841],[114.094009,22.546835],[114.094153,22.546822],[114.094379,22.546758],[114.094739,22.546647],[114.094902,22.546594],[114.095019,22.546577],[114.09506,22.54659],[114.09507,22.546686],[114.095093,22.546905],[114.095084,22.547042],[114.095037,22.547139],[114.094972,22.547199],[114.094885,22.54725],[114.094723,22.547317],[114.094501,22.547398],[114.094333,22.547458],[114.094271,22.547501],[114.094225,22.547538],[114.093807,22.547998],[114.093783,22.548016],[114.093746,22.54801],[114.093524,22.547884]]]}},{"type":"Feature","properties":{"oid":"way/1432281072"},"geometry":{"type":"Polygon","coordinates":[[[114.09357,22.542712],[114.093846,22.542706],[114.093846,22.542826],[114.093573,22.54283],[114.09357,22.542712]]]}},{"type":"Feature","properties":{"oid":"way/1432281073"},"geometry":{"type":"Polygon","coordinates":[[[114.093573,22.542832],[114.093846,22.542826],[114.093849,22.542944],[114.093576,22.54295],[114.093573,22.542832]]]}},{"type":"Feature","properties":{"oid":"way/1432281074"},"geometry":{"type":"Polygon","coordinates":[[[114.09396,22.542593],[114.094221,22.542491],[114.094277,22.542613],[114.094016,22.542715],[114.09396,22.542593]]]}},{"type":"Feature","properties":{"oid":"way/1432281075"},"geometry":{"type":"Polygon","coordinates":[[[114.094417,22.542812],[114.094392,22.542844],[114.094357,22.542867],[114.094317,22.542878],[114.094272,22.542877],[114.09423,22.542862],[114.094196,22.542835],[114.094174,22.542799],[114.094166,22.542758],[114.094173,22.542718],[114.094195,22.542681],[114.094228,22.542654],[114.094269,22.542638],[114.094312,22.542636],[114.094353,22.542646],[114.094388,22.542667],[114.094414,22.542698],[114.094428,22.542735],[114.094429,22.542774],[114.094417,22.542812]]]}},{"type":"Feature","properties":{"oid":"way/1550319180"},"geometry":{"type":"Polygon","coordinates":[[[114.084091,22.552039],[114.084086,22.551703],[114.086455,22.551755],[114.086488,22.551763],[114.086533,22.551794],[114.086548,22.551857],[114.086543,22.552065],[114.086271,22.552063],[114.084091,22.552039]]]}},{"type":"Feature","properties":{"oid":"way/1550319200"},"geometry":{"type":"Polygon","coordinates":[[[114.091331,22.553182],[114.091337,22.552691],[114.091664,22.552983],[114.091661,22.553182],[114.091331,22.553182]]]}},{"type":"Feature","properties":{"oid":"way/527641728"},"geometry":{"type":"Polygon","coordinates":[[[114.091365,22.54698],[114.091375,22.545509],[114.092522,22.545515],[114.092513,22.546986],[114.091365,22.54698]]]}}]}