{"type":"FeatureCollection","features":[{"type":"Feature","properties":{"name":"华新站","en":null,"cls":"station"},"geometry":{"type":"Point","coordinates":[114.081444,22.551819]}},{"type":"Feature","properties":{"name":"深圳实验学校小学部","en":"Shenzhen Experimental School Primary School Department","cls":"amenity"},"geometry":{"type":"Point","coordinates":[114.087599,22.552805]}},{"type":"Feature","properties":{"name":"深圳外国语学校初中部","en":"Shenzhen Foreign Languages School Junior High School","cls":"amenity"},"geometry":{"type":"Point","coordinates":[114.088635,22.550913]}},{"type":"Feature","properties":{"name":"女人世界外贸城","en":null,"cls":"mall"},"geometry":{"type":"Point","coordinates":[114.080857,22.54991]}},{"type":"Feature","properties":{"name":"茂业百货","en":"MOI Department Store","cls":"mall"},"geometry":{"type":"Point","coordinates":[114.080921,22.548461]}},{"type":"Feature","properties":{"name":"顺电","en":"Sundan","cls":"electronics"},"geometry":{"type":"Point","coordinates":[114.080871,22.550281]}},{"type":"Feature","properties":{"name":"华强北派出所","en":null,"cls":"amenity"},"geometry":{"type":"Point","coordinates":[114.084287,22.54949]}},{"type":"Feature","properties":{"name":"深圳实验学校初中部","en":"Shenzhen Experimental School Junior High School Department","cls":"amenity"},"geometry":{"type":"Point","coordinates":[114.085371,22.552547]}},{"type":"Feature","properties":{"name":"旅馆","en":"Pleasant Hotel","cls":"hotel"},"geometry":{"type":"Point","coordinates":[114.082971,22.546815]}},{"type":"Feature","properties":{"name":"深圳回酒店","en":"Hui Hotel Shenzhen","cls":"hotel"},"geometry":{"type":"Point","coordinates":[114.076925,22.551207]}},{"type":"Feature","properties":{"name":"天虹Discovery","en":"Rainbow Discovery","cls":"mall"},"geometry":{"type":"Point","coordinates":[114.078557,22.54595]}},{"type":"Feature","properties":{"name":"曼哈商业广场","en":"Manhar Commercial Plaza","cls":"mall"},"geometry":{"type":"Point","coordinates":[114.082419,22.54855]}},{"type":"Feature","properties":{"name":"格兰云天大酒店","en":null,"cls":"hotel"},"geometry":{"type":"Point","coordinates":[114.077496,22.543835]}},{"type":"Feature","properties":{"name":"上步中路垃圾转运站","en":null,"cls":"amenity"},"geometry":{"type":"Point","coordinates":[114.089792,22.552066]}},{"type":"Feature","properties":{"name":"荔园小学","en":null,"cls":"amenity"},"geometry":{"type":"Point","coordinates":[114.091864,22.548502]}},{"type":"Feature","properties":{"name":"如家和颐酒店","en":"Home Inn","cls":"hotel"},"geometry":{"type":"Point","coordinates":[114.083013,22.54283]}},{"type":"Feature","properties":{"name":"Maker Hotel","en":"Maker Hotel","cls":"hotel"},"geometry":{"type":"Point","coordinates":[114.082484,22.542501]}},{"type":"Feature","properties":{"name":"中国工商银行","en":"Industrial and Commercial Bank of China","cls":"money"},"geometry":{"type":"Point","coordinates":[114.084669,22.541009]}},{"type":"Feature","properties":{"name":"世纪汇","en":"Century Place","cls":"mall"},"geometry":{"type":"Point","coordinates":[114.078456,22.544089]}},{"type":"Feature","properties":{"name":"华强广场","en":null,"cls":"mall"},"geometry":{"type":"Point","coordinates":[114.081069,22.545674]}},{"type":"Feature","properties":{"name":"华强广场酒店","en":"Huaqiang Plaza Hotel","cls":"hotel"},"geometry":{"type":"Point","coordinates":[114.080868,22.546568]}},{"type":"Feature","properties":{"name":"茂业百货","en":null,"cls":"mall"},"geometry":{"type":"Point","coordinates":[114.087536,22.543746]}},{"type":"Feature","properties":{"name":"兴华宾馆","en":null,"cls":"hotel"},"geometry":{"type":"Point","coordinates":[114.087101,22.543988]}},{"type":"Feature","properties":{"name":"荔园小学西校区","en":null,"cls":"amenity"},"geometry":{"type":"Point","coordinates":[114.089065,22.545735]}},{"type":"Feature","properties":{"name":"深圳市老干部活动中心","en":null,"cls":"amenity"},"geometry":{"type":"Point","coordinates":[114.091939,22.545045]}},{"type":"Feature","properties":{"name":"中航城天虹购物中心","en":"AVIC Center Rainbow Shopping Center","cls":"mall"},"geometry":{"type":"Point","coordinates":[114.077782,22.545377]}},{"type":"Feature","properties":{"name":"上海宾馆","en":"Shanghai Hotel","cls":"hotel"},"geometry":{"type":"Point","coordinates":[114.07679,22.543888]}},{"type":"Feature","properties":{"name":"深圳少年儿童图书馆","en":"Shenzhen Children's Library","cls":"amenity"},"geometry":{"type":"Point","coordinates":[114.0944,22.550912]}},{"type":"Feature","properties":{"name":"南园小学","en":"Nanyuan Primary School","cls":"amenity"},"geometry":{"type":"Point","coordinates":[114.090203,22.539752]}},{"type":"Feature","properties":{"name":"园岭派出所","en":null,"cls":"amenity"},"geometry":{"type":"Point","coordinates":[114.091528,22.547844]}},{"type":"Feature","properties":{"name":"深圳市第二幼儿园","en":null,"cls":"amenity"},"geometry":{"type":"Point","coordinates":[114.092754,22.54876]}},{"type":"Feature","properties":{"name":"上步中学","en":"Shangbu Middle School","cls":"amenity"},"geometry":{"type":"Point","coordinates":[114.085315,22.538485]}},{"type":"Feature","properties":{"name":"深圳市妇幼保健院","en":"Shenzhen Maternity and Child Care Hospital","cls":"amenity"},"geometry":{"type":"Point","coordinates":[114.089437,22.552479]}},{"type":"Feature","properties":{"name":"城际酒店","en":"IntercityHotel","cls":"hotel"},"geometry":{"type":"Point","coordinates":[114.082495,22.552378]}},{"type":"Feature","properties":{"name":"深圳市社会科学院","en":null,"cls":"amenity"},"geometry":{"type":"Point","coordinates":[114.090159,22.548351]}},{"type":"Feature","properties":{"name":"中国石化","en":"Sinopec","cls":"amenity"},"geometry":{"type":"Point","coordinates":[114.081981,22.542665]}},{"type":"Feature","properties":{"name":"中国石化","en":"Sinopec","cls":"amenity"},"geometry":{"type":"Point","coordinates":[114.0768,22.54255]}},{"type":"Feature","properties":{"name":"科学馆地铁公交接驳站","en":"Science Museum Metro Station Bus Terminus","cls":"station"},"geometry":{"type":"Point","coordinates":[114.090478,22.542821]}},{"type":"Feature","properties":{"name":"深圳市福田区第二实验学校","en":"Shenzhen Futian 2nd Experimental School","cls":"amenity"},"geometry":{"type":"Point","coordinates":[114.079503,22.537507]}},{"type":"Feature","properties":{"name":"中信国际大厦·信荟","en":null,"cls":"mall"},"geometry":{"type":"Point","coordinates":[114.08994,22.542565]}},{"type":"Feature","properties":{"name":"通心岭停车场（荔枝公园预约停车场）","en":null,"cls":"amenity"},"geometry":{"type":"Point","coordinates":[114.093233,22.551283]}},{"type":"Feature","properties":{"name":"上步小学","en":null,"cls":"amenity"},"geometry":{"type":"Point","coordinates":[114.093416,22.540502]}},{"type":"Feature","properties":{"name":"深圳市中医院","en":"TCM Hospital","cls":"amenity"},"geometry":{"type":"Point","coordinates":[114.080141,22.539804]}},{"type":"Feature","properties":{"name":"福田小学","en":null,"cls":"amenity"},"geometry":{"type":"Point","coordinates":[114.076717,22.53874]}},{"type":"Feature","properties":{"name":"深圳市中医肛肠医院(福田)南园院区","en":null,"cls":"amenity"},"geometry":{"type":"Point","coordinates":[114.08949,22.53856]}},{"type":"Feature","properties":{"name":"南园小学","en":"Nanyuan Primary School","cls":"amenity"},"geometry":{"type":"Point","coordinates":[114.089039,22.538567]}},{"type":"Feature","properties":{"name":"科学馆站","en":"Science Museum Station","cls":"station"},"geometry":{"type":"Point","coordinates":[114.089933,22.543292]}},{"type":"Feature","properties":{"name":"暨南大学附属深圳爱尔眼科医院","en":null,"cls":"amenity"},"geometry":{"type":"Point","coordinates":[114.082445,22.537955]}},{"type":"Feature","properties":{"name":"深圳南华幼儿园","en":null,"cls":"amenity"},"geometry":{"type":"Point","coordinates":[114.083278,22.540066]}},{"type":"Feature","properties":{"name":"红岭站","en":"Hongling Station","cls":"station"},"geometry":{"type":"Point","coordinates":[114.098823,22.551203]}},{"type":"Feature","properties":{"name":"29栋","en":null,"cls":"mall"},"geometry":{"type":"Point","coordinates":[114.095837,22.55262]}},{"type":"Feature","properties":{"name":"中信地下商场","en":null,"cls":"mall"},"geometry":{"type":"Point","coordinates":[114.091572,22.54292]}},{"type":"Feature","properties":{"name":"华强南站","en":"Huaqiang South Station","cls":"station"},"geometry":{"type":"Point","coordinates":[114.083165,22.540762]}},{"type":"Feature","properties":{"name":"科学馆站","en":"Science Museum Station","cls":"station"},"geometry":{"type":"Point","coordinates":[114.090604,22.542558]}},{"type":"Feature","properties":{"name":"华强南站","en":"Huaqiang South Station","cls":"station"},"geometry":{"type":"Point","coordinates":[114.081728,22.539987]}},{"type":"Feature","properties":{"name":"燕南站","en":"Yannan Station","cls":"station"},"geometry":{"type":"Point","coordinates":[114.086505,22.547221]}},{"type":"Feature","properties":{"name":"福星站","en":"Fuxing Station","cls":"station"},"geometry":{"type":"Point","coordinates":[114.078381,22.540385]}},{"type":"Feature","properties":{"name":"华强北站","en":"Huaqiang North Station","cls":"station"},"geometry":{"type":"Point","coordinates":[114.08108,22.546563]}},{"type":"Feature","properties":{"name":"华强路站","en":"Huaqiang Road Station","cls":"station"},"geometry":{"type":"Point","coordinates":[114.079878,22.5431]}},{"type":"Feature","properties":{"name":"iN城市广场","en":"iN CITY PARK","cls":"mall"},"geometry":{"type":"Point","coordinates":[114.093326,22.542046]}},{"type":"Feature","properties":{"name":"通新岭站","en":"Tongxinling Station","cls":"station"},"geometry":{"type":"Point","coordinates":[114.091004,22.551446]}},{"type":"Feature","properties":{"name":"沃尔玛","en":"Walmart","cls":"shop"},"geometry":{"type":"Point","coordinates":[114.088348,22.547626]}},{"type":"Feature","properties":{"name":"深圳消防","en":null,"cls":"amenity"},"geometry":{"type":"Point","coordinates":[114.087211,22.550797]}},{"type":"Feature","properties":{"name":"Motel 268","en":"7 Days Inn","cls":"hotel"},"geometry":{"type":"Point","coordinates":[114.082636,22.542674]}},{"type":"Feature","properties":{"name":"Super Rainbow","en":null,"cls":"shop"},"geometry":{"type":"Point","coordinates":[114.077942,22.546539]}},{"type":"Feature","properties":{"name":"通新岭","en":"Tongxinling","cls":"station"},"geometry":{"type":"Point","coordinates":[114.091076,22.551957]}},{"type":"Feature","properties":{"name":"赛格电子市场","en":"SEG Electronics Market","cls":"electronics"},"geometry":{"type":"Point","coordinates":[114.082195,22.543951]}},{"type":"Feature","properties":{"name":"丰尔电子","en":"Yufo Electronics Components","cls":"electronics"},"geometry":{"type":"Point","coordinates":[114.081219,22.543983]}},{"type":"Feature","properties":{"name":"MINGTON Building","en":null,"cls":"mall"},"geometry":{"type":"Point","coordinates":[114.083797,22.548223]}},{"type":"Feature","properties":{"name":"大家乐","en":"Café de Coral","cls":"food"},"geometry":{"type":"Point","coordinates":[114.080272,22.549382]}},{"type":"Feature","properties":{"name":"麦当劳","en":"McDonald's","cls":"food"},"geometry":{"type":"Point","coordinates":[114.081945,22.548907]}},{"type":"Feature","properties":{"name":"平安银行","en":"Ping An Bank","cls":"money"},"geometry":{"type":"Point","coordinates":[114.08186,22.549481]}},{"type":"Feature","properties":{"name":"汉堡王","en":"Burger King","cls":"food"},"geometry":{"type":"Point","coordinates":[114.081908,22.54853]}},{"type":"Feature","properties":{"name":"星巴克","en":"Starbucks","cls":"food"},"geometry":{"type":"Point","coordinates":[114.081152,22.54741]}},{"type":"Feature","properties":{"name":"D","en":null,"cls":"exit"},"geometry":{"type":"Point","coordinates":[114.090534,22.543044]}},{"type":"Feature","properties":{"name":"A","en":null,"cls":"exit"},"geometry":{"type":"Point","coordinates":[114.090552,22.543591]}},{"type":"Feature","properties":{"name":"C","en":null,"cls":"exit"},"geometry":{"type":"Point","coordinates":[114.08899,22.543021]}},{"type":"Feature","properties":{"name":"B","en":null,"cls":"exit"},"geometry":{"type":"Point","coordinates":[114.088986,22.543579]}},{"type":"Feature","properties":{"name":"Hawa Cafe","en":null,"cls":"food"},"geometry":{"type":"Point","coordinates":[114.091011,22.540703]}},{"type":"Feature","properties":{"name":"C出口","en":"Exit C","cls":"exit"},"geometry":{"type":"Point","coordinates":[114.082283,22.551852]}},{"type":"Feature","properties":{"name":"D","en":null,"cls":"exit"},"geometry":{"type":"Point","coordinates":[114.090399,22.551992]}},{"type":"Feature","properties":{"name":"A1","en":null,"cls":"exit"},"geometry":{"type":"Point","coordinates":[114.090333,22.551581]}},{"type":"Feature","properties":{"name":"7天酒店","en":"7 Days Inn","cls":"hotel"},"geometry":{"type":"Point","coordinates":[114.088369,22.550058]}},{"type":"Feature","properties":{"name":"平安银行（深圳分行）","en":null,"cls":"money"},"geometry":{"type":"Point","coordinates":[114.091709,22.542781]}},{"type":"Feature","properties":{"name":"C","en":null,"cls":"exit"},"geometry":{"type":"Point","coordinates":[114.079184,22.542769]}},{"type":"Feature","properties":{"name":"A","en":null,"cls":"exit"},"geometry":{"type":"Point","coordinates":[114.080891,22.543407]}},{"type":"Feature","properties":{"name":"D","en":null,"cls":"exit"},"geometry":{"type":"Point","coordinates":[114.080738,22.542842]}},{"type":"Feature","properties":{"name":"B","en":null,"cls":"exit"},"geometry":{"type":"Point","coordinates":[114.078903,22.543472]}},{"type":"Feature","properties":{"name":"Pleasant Caffé","en":null,"cls":"amenity"},"geometry":{"type":"Point","coordinates":[114.083027,22.546844]}},{"type":"Feature","properties":{"name":"Lao Da Chang","en":null,"cls":"food"},"geometry":{"type":"Point","coordinates":[114.07716,22.542685]}},{"type":"Feature","properties":{"name":"GDH Inn","en":"GDH Inn","cls":"hotel"},"geometry":{"type":"Point","coordinates":[114.078653,22.540452]}},{"type":"Feature","properties":{"name":"中国工商银行","en":"Industrial and Commercial Bank of China","cls":"money"},"geometry":{"type":"Point","coordinates":[114.088366,22.541568]}},{"type":"Feature","properties":{"name":"中国工商银行","en":"Industrial and Commercial Bank of China","cls":"money"},"geometry":{"type":"Point","coordinates":[114.082977,22.543451]}},{"type":"Feature","properties":{"name":"中国工商银行","en":"Industrial and Commercial Bank of China","cls":"money"},"geometry":{"type":"Point","coordinates":[114.087418,22.543516]}},{"type":"Feature","properties":{"name":"中国工商银行","en":"Industrial and Commercial Bank of China","cls":"money"},"geometry":{"type":"Point","coordinates":[114.079043,22.541403]}},{"type":"Feature","properties":{"name":"Soho","en":null,"cls":"food"},"geometry":{"type":"Point","coordinates":[114.07815,22.548998]}},{"type":"Feature","properties":{"name":"通新岭地铁站C口","en":null,"cls":"exit"},"geometry":{"type":"Point","coordinates":[114.091775,22.552058]}},{"type":"Feature","properties":{"name":"Halal Restaurant","en":"Halal Restaurant","cls":"food"},"geometry":{"type":"Point","coordinates":[114.0842,22.546784]}},{"type":"Feature","properties":{"name":"Halal","en":"Halal","cls":"food"},"geometry":{"type":"Point","coordinates":[114.086375,22.540587]}},{"type":"Feature","properties":{"name":"麦当劳","en":"McDonald's","cls":"food"},"geometry":{"type":"Point","coordinates":[114.084465,22.542916]}},{"type":"Feature","properties":{"name":"肯德基","en":"KFC","cls":"food"},"geometry":{"type":"Point","coordinates":[114.081024,22.549448]}},{"type":"Feature","properties":{"name":"绿茶餐厅","en":"Green Tea","cls":"food"},"geometry":{"type":"Point","coordinates":[114.078147,22.544657]}},{"type":"Feature","properties":{"name":"优衣库","en":"Uniqlo","cls":"shop"},"geometry":{"type":"Point","coordinates":[114.080983,22.548741]}},{"type":"Feature","properties":{"name":"麦当劳","en":"McDonald's","cls":"food"},"geometry":{"type":"Point","coordinates":[114.081329,22.54773]}},{"type":"Feature","properties":{"name":"赛百味","en":"Subway","cls":"food"},"geometry":{"type":"Point","coordinates":[114.078435,22.54415]}},{"type":"Feature","properties":{"name":"China Misheng Bank","en":"China Misheng Bank","cls":"money"},"geometry":{"type":"Point","coordinates":[114.079589,22.543689]}},{"type":"Feature","properties":{"name":"D2","en":null,"cls":"exit"},"geometry":{"type":"Point","coordinates":[114.081903,22.545364]}},{"type":"Feature","properties":{"name":"E2","en":null,"cls":"exit"},"geometry":{"type":"Point","coordinates":[114.081917,22.546219]}},{"type":"Feature","properties":{"name":"贡茶","en":"Gong Cha","cls":"food"},"geometry":{"type":"Point","coordinates":[114.081862,22.548968]}},{"type":"Feature","properties":{"name":"A","en":"Exit A","cls":"exit"},"geometry":{"type":"Point","coordinates":[114.080621,22.546826]}},{"type":"Feature","properties":{"name":"Exit B ( not working)","en":null,"cls":"exit"},"geometry":{"type":"Point","coordinates":[114.081465,22.547493]}},{"type":"Feature","properties":{"name":"Electronics 2","en":"Electronics 2","cls":"shop"},"geometry":{"type":"Point","coordinates":[114.079833,22.544171]}},{"type":"Feature","properties":{"name":"Shanjani hotel sekh","en":"Shanjani hotel sekh","cls":"amenity"},"geometry":{"type":"Point","coordinates":[114.085278,22.54564]}},{"type":"Feature","properties":{"name":"Asim sir office","en":"Asim sir office","cls":"shop"},"geometry":{"type":"Point","coordinates":[114.079045,22.54647]}},{"type":"Feature","properties":{"name":"Market cell phone","en":"Market cell phone","cls":"electronics"},"geometry":{"type":"Point","coordinates":[114.086161,22.541456]}},{"type":"Feature","properties":{"name":"Exit C","en":null,"cls":"exit"},"geometry":{"type":"Point","coordinates":[114.079354,22.547555]}},{"type":"Feature","properties":{"name":"Malaysia","en":"Malaysia","cls":"food"},"geometry":{"type":"Point","coordinates":[114.079131,22.544504]}},{"type":"Feature","properties":{"name":"赛百味","en":"Subway","cls":"food"},"geometry":{"type":"Point","coordinates":[114.079137,22.544292]}},{"type":"Feature","properties":{"name":"Hollys Coffee","en":"Hollys Coffee","cls":"food"},"geometry":{"type":"Point","coordinates":[114.079178,22.543569]}},{"type":"Feature","properties":{"name":"Shenzhen development bank","en":"Shenzhen development bank","cls":"money"},"geometry":{"type":"Point","coordinates":[114.080298,22.543746]}},{"type":"Feature","properties":{"name":"SEGCOM","en":"SEGCOM","cls":"electronics"},"geometry":{"type":"Point","coordinates":[114.081994,22.545862]}},{"type":"Feature","properties":{"name":"SEG Factory Store","en":"SEG Factory Store","cls":"electronics"},"geometry":{"type":"Point","coordinates":[114.08192,22.545226]}},{"type":"Feature","properties":{"name":"中国移动","en":"China Mobile","cls":"shop"},"geometry":{"type":"Point","coordinates":[114.081908,22.545988]}},{"type":"Feature","properties":{"name":"Casablanca Home Style Cousine","en":"Casablanca Home Style Cousine","cls":"food"},"geometry":{"type":"Point","coordinates":[114.07986,22.549351]}},{"type":"Feature","properties":{"name":"Fishmarket","en":"Fishmarket","cls":"shop"},"geometry":{"type":"Point","coordinates":[114.078484,22.548369]}},{"type":"Feature","properties":{"name":"24h","en":"24h","cls":"shop"},"geometry":{"type":"Point","coordinates":[114.078392,22.547828]}},{"type":"Feature","properties":{"name":"Chinese 24h","en":"Chinese 24h","cls":"food"},"geometry":{"type":"Point","coordinates":[114.079061,22.545552]}},{"type":"Feature","properties":{"name":"7-Eleven","en":"7-eleven","cls":"shop"},"geometry":{"type":"Point","coordinates":[114.079086,22.543248]}},{"type":"Feature","properties":{"name":"赛百味","en":"Subway","cls":"food"},"geometry":{"type":"Point","coordinates":[114.079363,22.54452]}},{"type":"Feature","properties":{"name":"Mevlana","en":"Mevlana","cls":"food"},"geometry":{"type":"Point","coordinates":[114.078079,22.549378]}},{"type":"Feature","properties":{"name":"点都德","en":"Diandoude","cls":"food"},"geometry":{"type":"Point","coordinates":[114.082293,22.53826]}},{"type":"Feature","properties":{"name":"A","en":null,"cls":"exit"},"geometry":{"type":"Point","coordinates":[114.081951,22.538866]}},{"type":"Feature","properties":{"name":"D","en":null,"cls":"exit"},"geometry":{"type":"Point","coordinates":[114.081489,22.539313]}},{"type":"Feature","properties":{"name":"F","en":null,"cls":"exit"},"geometry":{"type":"Point","coordinates":[114.081296,22.552704]}},{"type":"Feature","properties":{"name":"B","en":null,"cls":"exit"},"geometry":{"type":"Point","coordinates":[114.081845,22.541067]}},{"type":"Feature","properties":{"name":"C","en":null,"cls":"exit"},"geometry":{"type":"Point","coordinates":[114.081438,22.540377]}},{"type":"Feature","properties":{"name":"无邪日式甜品","en":null,"cls":"food"},"geometry":{"type":"Point","coordinates":[114.078897,22.545712]}},{"type":"Feature","properties":{"name":"Fraser Suites","en":null,"cls":"hotel"},"geometry":{"type":"Point","coordinates":[114.0771,22.546559]}},{"type":"Feature","properties":{"name":"барахолка","en":"барахолка","cls":"shop"},"geometry":{"type":"Point","coordinates":[114.079906,22.549668]}},{"type":"Feature","properties":{"name":"星巴克","en":"Starbucks","cls":"food"},"geometry":{"type":"Point","coordinates":[114.079508,22.545797]}},{"type":"Feature","properties":{"name":"阿迪达斯","en":"Adidas","cls":"shop"},"geometry":{"type":"Point","coordinates":[114.078474,22.54359]}},{"type":"Feature","properties":{"name":"招商銀行（振華支行）","en":"China Merchants Bank Zhenhua Sub-Branch","cls":"money"},"geometry":{"type":"Point","coordinates":[114.083404,22.551076]}},{"type":"Feature","properties":{"name":"南园店","en":"Three brothers kitchen","cls":"food"},"geometry":{"type":"Point","coordinates":[114.08846,22.542019]}},{"type":"Feature","properties":{"name":"海底捞火锅","en":"Haidilao Hot Pot","cls":"food"},"geometry":{"type":"Point","coordinates":[114.080929,22.547958]}},{"type":"Feature","properties":{"name":"星巴克","en":"Starbucks","cls":"food"},"geometry":{"type":"Point","coordinates":[114.083219,22.544357]}},{"type":"Feature","properties":{"name":"爱华宾馆","en":"Shenzhen Oneway Hotel","cls":"hotel"},"geometry":{"type":"Point","coordinates":[114.08602,22.543833]}},{"type":"Feature","properties":{"name":"通新岭","en":"Tongxinling","cls":"station"},"geometry":{"type":"Point","coordinates":[114.091038,22.551309]}},{"type":"Feature","properties":{"name":"明通数码城","en":"Mingtong Digital City","cls":"electronics"},"geometry":{"type":"Point","coordinates":[114.083493,22.547389]}},{"type":"Feature","properties":{"name":"Huitong Accessories Market","en":"Huitong Accessories Market","cls":"electronics"},"geometry":{"type":"Point","coordinates":[114.083381,22.545898]}},{"type":"Feature","properties":{"name":"Foreign Trade Wholesale Market","en":"Foreign Trade Wholesale Market","cls":"electronics"},"geometry":{"type":"Point","coordinates":[114.083376,22.545775]}},{"type":"Feature","properties":{"name":"Taxing Communications Market","en":"Taxing Communications Market","cls":"electronics"},"geometry":{"type":"Point","coordinates":[114.082454,22.542882]}},{"type":"Feature","properties":{"name":"Longsheng Telecommunication Market","en":"Longsheng Telecommunication Market","cls":"electronics"},"geometry":{"type":"Point","coordinates":[114.084452,22.542826]}},{"type":"Feature","properties":{"name":"Peng Jin Shan Electronics Market","en":"Peng Jin Shan Electronics Market","cls":"electronics"},"geometry":{"type":"Point","coordinates":[114.084541,22.542824]}},{"type":"Feature","properties":{"name":"TTD Market","en":"TTD Market","cls":"electronics"},"geometry":{"type":"Point","coordinates":[114.08467,22.542084]}},{"type":"Feature","properties":{"name":"Xinjiang Restaurant","en":"Xinjiang Restaurant","cls":"food"},"geometry":{"type":"Point","coordinates":[114.089098,22.54165]}},{"type":"Feature","properties":{"name":"Seven Element","en":"Seven Element","cls":"food"},"geometry":{"type":"Point","coordinates":[114.088943,22.541346]}},{"type":"Feature","properties":{"name":"Wanshan Tianchu","en":"Wanshan Tianchu","cls":"food"},"geometry":{"type":"Point","coordinates":[114.078189,22.548999]}},{"type":"Feature","properties":{"name":"International Maker Space","en":null,"cls":"electronics"},"geometry":{"type":"Point","coordinates":[114.081258,22.545774]}},{"type":"Feature","properties":{"name":"City Mall","en":"City Mall","cls":"shop"},"geometry":{"type":"Point","coordinates":[114.094971,22.541697]}},{"type":"Feature","properties":{"name":"中国农业银行","en":"Agricultural Bank of China","cls":"money"},"geometry":{"type":"Point","coordinates":[114.078432,22.541779]}},{"type":"Feature","properties":{"name":"中国建设银行","en":"China Construction Bank","cls":"money"},"geometry":{"type":"Point","coordinates":[114.082071,22.543794]}},{"type":"Feature","properties":{"name":"kypil yau","en":null,"cls":"amenity"},"geometry":{"type":"Point","coordinates":[114.083375,22.545862]}},{"type":"Feature","properties":{"name":"四川宾馆","en":null,"cls":"hotel"},"geometry":{"type":"Point","coordinates":[114.090059,22.551383]}},{"type":"Feature","properties":{"name":"凤凰楼","en":null,"cls":"food"},"geometry":{"type":"Point","coordinates":[114.083007,22.552159]}},{"type":"Feature","properties":{"name":"东亚银行","en":"Bank of East Asia","cls":"money"},"geometry":{"type":"Point","coordinates":[114.082173,22.549031]}},{"type":"Feature","properties":{"name":"海底捞火锅","en":"Haidilao Hot Pot","cls":"food"},"geometry":{"type":"Point","coordinates":[114.092892,22.54212]}},{"type":"Feature","properties":{"name":"中国建设银行","en":"China Construction Bank","cls":"money"},"geometry":{"type":"Point","coordinates":[114.08337,22.552187]}},{"type":"Feature","properties":{"name":"巴蜀风","en":"Bashufeng","cls":"food"},"geometry":{"type":"Point","coordinates":[114.087477,22.5491]}},{"type":"Feature","properties":{"name":"木屋烧烤","en":null,"cls":"food"},"geometry":{"type":"Point","coordinates":[114.088111,22.547782]}},{"type":"Feature","properties":{"name":"交通银行","en":"Bank of Communications","cls":"money"},"geometry":{"type":"Point","coordinates":[114.088414,22.549392]}},{"type":"Feature","properties":{"name":"必胜客","en":"Pizza Hut","cls":"food"},"geometry":{"type":"Point","coordinates":[114.088147,22.548049]}},{"type":"Feature","properties":{"name":"面点王","en":null,"cls":"food"},"geometry":{"type":"Point","coordinates":[114.087541,22.547792]}},{"type":"Feature","properties":{"name":"科学馆","en":"Science Museum","cls":"station"},"geometry":{"type":"Point","coordinates":[114.089758,22.54331]}},{"type":"Feature","properties":{"name":"华强路","en":"Huaqiang Road","cls":"station"},"geometry":{"type":"Point","coordinates":[114.079944,22.54304]}},{"type":"Feature","properties":{"name":"华强北","en":"Huaqiang North","cls":"station"},"geometry":{"type":"Point","coordinates":[114.080252,22.547012]}},{"type":"Feature","properties":{"name":"燕南","en":"Yannan","cls":"station"},"geometry":{"type":"Point","coordinates":[114.086904,22.547165]}},{"type":"Feature","properties":{"name":"星巴克","en":"Starbucks","cls":"food"},"geometry":{"type":"Point","coordinates":[114.080298,22.550771]}},{"type":"Feature","properties":{"name":"栖游青年旅舍","en":"Qiyou Capsule Youth Hostel","cls":"hotel"},"geometry":{"type":"Point","coordinates":[114.077112,22.548929]}},{"type":"Feature","properties":{"name":"中国建设银行","en":"China Construction Bank","cls":"money"},"geometry":{"type":"Point","coordinates":[114.078747,22.546874]}},{"type":"Feature","properties":{"name":"宁波银行","en":"Bank of Ningbo","cls":"money"},"geometry":{"type":"Point","coordinates":[114.08434,22.546803]}},{"type":"Feature","properties":{"name":"Shangjian Space Capsule Inn Shenzhen Huaqiangbei","en":"Shangjian Space Capsule Inn Shenzhen Huaqiangbei","cls":"hotel"},"geometry":{"type":"Point","coordinates":[114.082345,22.549463]}},{"type":"Feature","properties":{"name":"深圳农商银行","en":"Shenzhen Rural Commercial Bank","cls":"money"},"geometry":{"type":"Point","coordinates":[114.089652,22.540394]}},{"type":"Feature","properties":{"name":"中国银行","en":"Bank of China","cls":"money"},"geometry":{"type":"Point","coordinates":[114.089491,22.541645]}},{"type":"Feature","properties":{"name":"中国建设银行","en":"China Construction Bank","cls":"money"},"geometry":{"type":"Point","coordinates":[114.087255,22.541096]}},{"type":"Feature","properties":{"name":"Capsule hotel","en":"Capsule hotel","cls":"hotel"},"geometry":{"type":"Point","coordinates":[114.089785,22.538683]}},{"type":"Feature","properties":{"name":"卢米埃影院","en":null,"cls":"amenity"},"geometry":{"type":"Point","coordinates":[114.078673,22.545002]}},{"type":"Feature","properties":{"name":"麦当劳","en":"McDonald's","cls":"food"},"geometry":{"type":"Point","coordinates":[114.094074,22.542067]}},{"type":"Feature","properties":{"name":"中国邮政储蓄银行","en":"Postal Savings Bank of China","cls":"money"},"geometry":{"type":"Point","coordinates":[114.09292,22.551992]}},{"type":"Feature","properties":{"name":"必胜客","en":"Pizza Hut","cls":"food"},"geometry":{"type":"Point","coordinates":[114.079574,22.542822]}},{"type":"Feature","properties":{"name":"肯德基","en":"KFC","cls":"food"},"geometry":{"type":"Point","coordinates":[114.088219,22.547488]}},{"type":"Feature","properties":{"name":"华强路地铁公交接驳站","en":"Huaqiang Rd Metro Sta. Bus Terminus","cls":"station"},"geometry":{"type":"Point","coordinates":[114.08126,22.542754]}},{"type":"Feature","properties":{"name":"E","en":null,"cls":"exit"},"geometry":{"type":"Point","coordinates":[114.090996,22.541756]}},{"type":"Feature","properties":{"name":"荔园小馆","en":null,"cls":"food"},"geometry":{"type":"Point","coordinates":[114.095215,22.552002]}},{"type":"Feature","properties":{"name":"宴老北京铜火锅（中航天虹店）","en":null,"cls":"food"},"geometry":{"type":"Point","coordinates":[114.077718,22.544055]}},{"type":"Feature","properties":{"name":"群星广场始发站","en":"Qunxing Plaza Departure","cls":"station"},"geometry":{"type":"Point","coordinates":[114.083249,22.551312]}},{"type":"Feature","properties":{"name":"华强北","en":"Huaqiang North","cls":"station"},"geometry":{"type":"Point","coordinates":[114.081679,22.545657]}},{"type":"Feature","properties":{"name":"通新岭‎","en":"Tongxinling","cls":"station"},"geometry":{"type":"Point","coordinates":[114.09104,22.551764]}},{"type":"Feature","properties":{"name":"通新岭","en":"Tongxinling","cls":"station"},"geometry":{"type":"Point","coordinates":[114.091103,22.55181]}},{"type":"Feature","properties":{"name":"通新岭","en":"Tongxinling","cls":"station"},"geometry":{"type":"Point","coordinates":[114.091012,22.551718]}},{"type":"Feature","properties":{"name":"科学馆","en":"Science Museum","cls":"station"},"geometry":{"type":"Point","coordinates":[114.091202,22.542118]}},{"type":"Feature","properties":{"name":"通新岭","en":"Tongxinling","cls":"station"},"geometry":{"type":"Point","coordinates":[114.091006,22.55131]}},{"type":"Feature","properties":{"name":"佳和电子市场","en":null,"cls":"shop"},"geometry":{"type":"Point","coordinates":[114.079882,22.543819]}},{"type":"Feature","properties":{"name":"华新‎","en":"Huaxin","cls":"station"},"geometry":{"type":"Point","coordinates":[114.08177,22.551793]}},{"type":"Feature","properties":{"name":"华强南","en":"Huaqiang South","cls":"station"},"geometry":{"type":"Point","coordinates":[114.081659,22.539951]}},{"type":"Feature","properties":{"name":"无印良品","en":"Muji","cls":"shop"},"geometry":{"type":"Point","coordinates":[114.094314,22.541811]}},{"type":"Feature","properties":{"name":"山水时尚酒店","en":"Shanshui Trends Hotel","cls":"hotel"},"geometry":{"type":"Point","coordinates":[114.083845,22.546737]}},{"type":"Feature","properties":{"name":"Daxm 8-8","en":"Daxm 8-8","cls":"food"},"geometry":{"type":"Point","coordinates":[114.094812,22.541338]}},{"type":"Feature","properties":{"name":"E2","en":null,"cls":"exit"},"geometry":{"type":"Point","coordinates":[114.091316,22.550597]}},{"type":"Feature","properties":{"name":"E1","en":null,"cls":"exit"},"geometry":{"type":"Point","coordinates":[114.091299,22.550178]}},{"type":"Feature","properties":{"name":"F","en":null,"cls":"exit"},"geometry":{"type":"Point","coordinates":[114.090801,22.549997]}},{"type":"Feature","properties":{"name":"A2","en":null,"cls":"exit"},"geometry":{"type":"Point","coordinates":[114.090747,22.55104]}},{"type":"Feature","properties":{"name":"F","en":null,"cls":"exit"},"geometry":{"type":"Point","coordinates":[114.091493,22.541756]}},{"type":"Feature","properties":{"name":"B","en":null,"cls":"exit"},"geometry":{"type":"Point","coordinates":[114.088257,22.54709]}},{"type":"Feature","properties":{"name":"A","en":null,"cls":"exit"},"geometry":{"type":"Point","coordinates":[114.0878,22.546448]}},{"type":"Feature","properties":{"name":"C","en":null,"cls":"exit"},"geometry":{"type":"Point","coordinates":[114.085684,22.54752]}},{"type":"Feature","properties":{"name":"E1","en":null,"cls":"exit"},"geometry":{"type":"Point","coordinates":[114.081919,22.545953]}},{"type":"Feature","properties":{"name":"D1","en":null,"cls":"exit"},"geometry":{"type":"Point","coordinates":[114.081911,22.545114]}},{"type":"Feature","properties":{"name":"17","en":null,"cls":"exit"},"geometry":{"type":"Point","coordinates":[114.081703,22.547711]}},{"type":"Feature","properties":{"name":"16","en":null,"cls":"exit"},"geometry":{"type":"Point","coordinates":[114.081286,22.547713]}},{"type":"Feature","properties":{"name":"15","en":null,"cls":"exit"},"geometry":{"type":"Point","coordinates":[114.081708,22.54797]}},{"type":"Feature","properties":{"name":"14","en":null,"cls":"exit"},"geometry":{"type":"Point","coordinates":[114.081708,22.548136]}},{"type":"Feature","properties":{"name":"13","en":null,"cls":"exit"},"geometry":{"type":"Point","coordinates":[114.081708,22.548302]}},{"type":"Feature","properties":{"name":"12","en":null,"cls":"exit"},"geometry":{"type":"Point","coordinates":[114.081278,22.548372]}},{"type":"Feature","properties":{"name":"11","en":null,"cls":"exit"},"geometry":{"type":"Point","coordinates":[114.081708,22.548469]}},{"type":"Feature","properties":{"name":"10","en":null,"cls":"exit"},"geometry":{"type":"Point","coordinates":[114.081325,22.548556]}},{"type":"Feature","properties":{"name":"9","en":null,"cls":"exit"},"geometry":{"type":"Point","coordinates":[114.081705,22.548645]}},{"type":"Feature","properties":{"name":"8","en":null,"cls":"exit"},"geometry":{"type":"Point","coordinates":[114.081715,22.548992]}},{"type":"Feature","properties":{"name":"7","en":null,"cls":"exit"},"geometry":{"type":"Point","coordinates":[114.081323,22.548995]}},{"type":"Feature","properties":{"name":"6","en":null,"cls":"exit"},"geometry":{"type":"Point","coordinates":[114.081325,22.549313]}},{"type":"Feature","properties":{"name":"5","en":null,"cls":"exit"},"geometry":{"type":"Point","coordinates":[114.081327,22.549484]}},{"type":"Feature","properties":{"name":"4","en":null,"cls":"exit"},"geometry":{"type":"Point","coordinates":[114.08133,22.549659]}},{"type":"Feature","properties":{"name":"3","en":null,"cls":"exit"},"geometry":{"type":"Point","coordinates":[114.081715,22.550173]}},{"type":"Feature","properties":{"name":"2","en":null,"cls":"exit"},"geometry":{"type":"Point","coordinates":[114.081315,22.55017]}},{"type":"Feature","properties":{"name":"A2","en":null,"cls":"exit"},"geometry":{"type":"Point","coordinates":[114.0813,22.551069]}},{"type":"Feature","properties":{"name":"1","en":null,"cls":"exit"},"geometry":{"type":"Point","coordinates":[114.081314,22.550654]}},{"type":"Feature","properties":{"name":"A1","en":null,"cls":"exit"},"geometry":{"type":"Point","coordinates":[114.080781,22.551319]}},{"type":"Feature","properties":{"name":"老何三婶家铁锅炖","en":null,"cls":"food"},"geometry":{"type":"Point","coordinates":[114.087244,22.547374]}},{"type":"Feature","properties":{"name":"华强南","en":"Huaqiang South","cls":"station"},"geometry":{"type":"Point","coordinates":[114.082981,22.540705]}},{"type":"Feature","properties":{"name":"B","en":null,"cls":"exit"},"geometry":{"type":"Point","coordinates":[114.091748,22.551638]}},{"type":"Feature","properties":{"name":"火狐狸户外用品","en":null,"cls":"shop"},"geometry":{"type":"Point","coordinates":[114.077836,22.546767]}},{"type":"Feature","properties":{"name":"火狐狸户外用品","en":null,"cls":"shop"},"geometry":{"type":"Point","coordinates":[114.087423,22.549099]}},{"type":"Feature","properties":{"name":"Bollywood Indian Restaurant","en":"Bollywood Indian Restaurant","cls":"food"},"geometry":{"type":"Point","coordinates":[114.087103,22.549062]}},{"type":"Feature","properties":{"name":"永辉超市","en":"Yonghui Superstores","cls":"shop"},"geometry":{"type":"Point","coordinates":[114.094092,22.542118]}},{"type":"Feature","properties":{"name":"寿司郎","en":"Sushiro","cls":"food"},"geometry":{"type":"Point","coordinates":[114.093694,22.541993]}},{"type":"Feature","properties":{"name":"大家乐","en":"Café de Coral","cls":"food"},"geometry":{"type":"Point","coordinates":[114.093764,22.542012]}},{"type":"Feature","properties":{"name":"M Stand","en":null,"cls":"food"},"geometry":{"type":"Point","coordinates":[114.093663,22.541936]}},{"type":"Feature","properties":{"name":"奈雪的茶","en":"Nayuki","cls":"food"},"geometry":{"type":"Point","coordinates":[114.093721,22.541939]}},{"type":"Feature","properties":{"name":"Oppo","en":null,"cls":"electronics"},"geometry":{"type":"Point","coordinates":[114.093923,22.542048]}},{"type":"Feature","properties":{"name":"小米之家","en":"Mi","cls":"electronics"},"geometry":{"type":"Point","coordinates":[114.093351,22.541836]}},{"type":"Feature","properties":{"name":"星巴克","en":"Starbucks","cls":"food"},"geometry":{"type":"Point","coordinates":[114.092446,22.542257]}},{"type":"Feature","properties":{"name":"点都德","en":"Diandoude","cls":"food"},"geometry":{"type":"Point","coordinates":[114.093981,22.541844]}},{"type":"Feature","properties":{"name":"瑞幸咖啡","en":"Luckin Coffee","cls":"food"},"geometry":{"type":"Point","coordinates":[114.094147,22.542018]}},{"type":"Feature","properties":{"name":"荣耀","en":"Honor","cls":"electronics"},"geometry":{"type":"Point","coordinates":[114.093979,22.542018]}},{"type":"Feature","properties":{"name":"蜜雪冰城","en":"Mixue Ice Cream & Tea","cls":"food"},"geometry":{"type":"Point","coordinates":[114.093816,22.542095]}},{"type":"Feature","properties":{"name":"麦当劳","en":"McDonald's","cls":"food"},"geometry":{"type":"Point","coordinates":[114.081135,22.550867]}},{"type":"Feature","properties":{"name":"繁楼","en":"Fanlou","cls":"food"},"geometry":{"type":"Point","coordinates":[114.078524,22.547381]}},{"type":"Feature","properties":{"name":"霸王茶姬","en":"Chagee","cls":"food"},"geometry":{"type":"Point","coordinates":[114.093674,22.541975]}},{"type":"Feature","properties":{"name":"八合里牛肉火锅","en":null,"cls":"food"},"geometry":{"type":"Point","coordinates":[114.086594,22.545735]}},{"type":"Feature","properties":{"name":"深圳福田银座村镇银行","en":"Shenzhen Futian Yinzuo Rural Bank","cls":"money"},"geometry":{"type":"Point","coordinates":[114.078424,22.541614]}},{"type":"Feature","properties":{"name":"The Estée Lauder","en":"The Estée Lauder","cls":"shop"},"geometry":{"type":"Point","coordinates":[114.081042,22.548305]}},{"type":"Feature","properties":{"name":"Dior","en":null,"cls":"shop"},"geometry":{"type":"Point","coordinates":[114.08104,22.548248]}},{"type":"Feature","properties":{"name":"Swarovski","en":null,"cls":"shop"},"geometry":{"type":"Point","coordinates":[114.080768,22.548167]}},{"type":"Feature","properties":{"name":"胖哥俩·肉蟹煲","en":"PANG GELIA","cls":"food"},"geometry":{"type":"Point","coordinates":[114.078719,22.544878]}},{"type":"Feature","properties":{"name":"星巴克","en":"Starbucks","cls":"food"},"geometry":{"type":"Point","coordinates":[114.078326,22.544467]}},{"type":"Feature","properties":{"name":"罗森","en":"Lawson","cls":"shop"},"geometry":{"type":"Point","coordinates":[114.077921,22.544154]}},{"type":"Feature","properties":{"name":"必胜客","en":"Pizza Hut","cls":"food"},"geometry":{"type":"Point","coordinates":[114.078313,22.543689]}},{"type":"Feature","properties":{"name":"库迪咖啡","en":"Cotti Coffee","cls":"food"},"geometry":{"type":"Point","coordinates":[114.078411,22.54357]}},{"type":"Feature","properties":{"name":"小米之家","en":"Mi","cls":"electronics"},"geometry":{"type":"Point","coordinates":[114.078404,22.543717]}},{"type":"Feature","properties":{"name":"麦当劳","en":"McDonald's","cls":"food"},"geometry":{"type":"Point","coordinates":[114.079064,22.543845]}},{"type":"Feature","properties":{"name":"Fila","en":null,"cls":"shop"},"geometry":{"type":"Point","coordinates":[114.078974,22.544834]}},{"type":"Feature","properties":{"name":"7-Eleven","en":null,"cls":"shop"},"geometry":{"type":"Point","coordinates":[114.077294,22.545258]}},{"type":"Feature","properties":{"name":"中国银行","en":"Bank of China","cls":"money"},"geometry":{"type":"Point","coordinates":[114.077088,22.545273]}},{"type":"Feature","properties":{"name":"比亚迪","en":"BYD","cls":"shop"},"geometry":{"type":"Point","coordinates":[114.077318,22.544968]}},{"type":"Feature","properties":{"name":"霸王茶姬","en":"Chagee","cls":"food"},"geometry":{"type":"Point","coordinates":[114.077752,22.546106]}},{"type":"Feature","properties":{"name":"无印良品","en":"Muji","cls":"shop"},"geometry":{"type":"Point","coordinates":[114.077597,22.54562]}},{"type":"Feature","properties":{"name":"Fila","en":null,"cls":"shop"},"geometry":{"type":"Point","coordinates":[114.077613,22.545724]}},{"type":"Feature","properties":{"name":"瑞幸咖啡","en":"Luckin Coffee","cls":"food"},"geometry":{"type":"Point","coordinates":[114.077715,22.545694]}},{"type":"Feature","properties":{"name":"星巴克","en":"Starbucks","cls":"food"},"geometry":{"type":"Point","coordinates":[114.077699,22.545488]}},{"type":"Feature","properties":{"name":"李宁","en":"Li-Ning","cls":"shop"},"geometry":{"type":"Point","coordinates":[114.078102,22.545319]}},{"type":"Feature","properties":{"name":"Calvin Klein","en":null,"cls":"shop"},"geometry":{"type":"Point","coordinates":[114.078095,22.545067]}},{"type":"Feature","properties":{"name":"大家乐","en":"Café de Coral","cls":"food"},"geometry":{"type":"Point","coordinates":[114.077828,22.544408]}},{"type":"Feature","properties":{"name":"优衣库","en":"Uniqlo","cls":"shop"},"geometry":{"type":"Point","coordinates":[114.077704,22.544573]}},{"type":"Feature","properties":{"name":"小米之家","en":"Mi","cls":"electronics"},"geometry":{"type":"Point","coordinates":[114.077804,22.544907]}},{"type":"Feature","properties":{"name":"H&M","en":null,"cls":"shop"},"geometry":{"type":"Point","coordinates":[114.077674,22.545194]}},{"type":"Feature","properties":{"name":"Vivo","en":null,"cls":"electronics"},"geometry":{"type":"Point","coordinates":[114.077826,22.545118]}},{"type":"Feature","properties":{"name":"中国农业银行","en":"Agricultural Bank of China","cls":"money"},"geometry":{"type":"Point","coordinates":[114.07723,22.546127]}},{"type":"Feature","properties":{"name":"广州银行","en":"Bank of Guangzhou","cls":"money"},"geometry":{"type":"Point","coordinates":[114.078086,22.546847]}},{"type":"Feature","properties":{"name":"星巴克","en":"Starbucks","cls":"food"},"geometry":{"type":"Point","coordinates":[114.080816,22.54676]}},{"type":"Feature","properties":{"name":"广发银行","en":"China Guangfa Bank","cls":"money"},"geometry":{"type":"Point","coordinates":[114.081,22.546612]}},{"type":"Feature","properties":{"name":"良品铺子","en":"Bestore","cls":"shop"},"geometry":{"type":"Point","coordinates":[114.081358,22.546421]}},{"type":"Feature","properties":{"name":"茉莉奶白","en":"MOLLYTEA","cls":"food"},"geometry":{"type":"Point","coordinates":[114.077846,22.545814]}},{"type":"Feature","properties":{"name":"肯德基","en":"KFC","cls":"food"},"geometry":{"type":"Point","coordinates":[114.078467,22.545694]}},{"type":"Feature","properties":{"name":"御蝶坊","en":null,"cls":"shop"},"geometry":{"type":"Point","coordinates":[114.078864,22.545529]}},{"type":"Feature","properties":{"name":"中信银行","en":"China CITIC Bank","cls":"money"},"geometry":{"type":"Point","coordinates":[114.088988,22.542788]}},{"type":"Feature","properties":{"name":"麦当劳","en":"McDonald's","cls":"food"},"geometry":{"type":"Point","coordinates":[114.088895,22.542438]}},{"type":"Feature","properties":{"name":"交通银行","en":"Bank of Communications","cls":"money"},"geometry":{"type":"Point","coordinates":[114.078581,22.544056]}},{"type":"Feature","properties":{"name":"Atlantis","en":null,"cls":"food"},"geometry":{"type":"Point","coordinates":[114.083166,22.54458]}},{"type":"Feature","properties":{"name":"肯德基","en":"KFC","cls":"food"},"geometry":{"type":"Point","coordinates":[114.08299,22.544359]}},{"type":"Feature","properties":{"name":"jd.com","en":null,"cls":"electronics"},"geometry":{"type":"Point","coordinates":[114.081964,22.550927]}},{"type":"Feature","properties":{"name":"三修堂素茶馆","en":null,"cls":"food"},"geometry":{"type":"Point","coordinates":[114.09019,22.542509]}},{"type":"Feature","properties":{"name":"Luckily Coffee","en":null,"cls":"food"},"geometry":{"type":"Point","coordinates":[114.079058,22.54365]}},{"type":"Feature","properties":{"name":"M Stand","en":null,"cls":"food"},"geometry":{"type":"Point","coordinates":[114.078479,22.545237]}}]}