{"type":"FeatureCollection","features":[{"type":"Feature","properties":{"oid":"way/979550845","line":null,"colour":"#b6afa3"},"geometry":{"type":"LineString","coordinates":[[114.091186,22.542127],[114.091208,22.540724]]}},{"type":"Feature","properties":{"oid":"way/979550846","line":null,"colour":"#b6afa3"},"geometry":{"type":"LineString","coordinates":[[114.09122,22.542128],[114.091242,22.540724]]}},{"type":"Feature","properties":{"oid":"way/803110029","line":"2","colour":"#DB6D1C"},"geometry":{"type":"LineString","coordinates":[[114.118731,22.546891],[114.114979,22.546115],[114.109675,22.545184],[114.108618,22.544951],[114.107577,22.544654],[114.106918,22.54449],[114.10592,22.544327],[114.104502,22.5441],[114.103492,22.54391],[114.102898,22.543791],[114.102185,22.543648],[114.101532,22.543538],[114.100947,22.543485],[114.100373,22.543547],[114.099843,22.543693],[114.099209,22.544178],[114.098914,22.544485],[114.098549,22.544907],[114.098034,22.545412],[114.097229,22.545967],[114.096806,22.546239],[114.096334,22.546492],[114.095953,22.546631],[114.095363,22.546809],[114.094714,22.546943],[114.093839,22.547082],[114.092965,22.547131],[114.092605,22.547171],[114.092224,22.54724],[114.091983,22.547265],[114.091329,22.54727],[114.090127,22.547237],[114.089017,22.547202],[114.086904,22.54718],[114.085971,22.54717],[114.085765,22.547166],[114.085644,22.547164],[114.084117,22.54714],[114.083089,22.547124],[114.080959,22.547094],[114.080244,22.547082],[114.078931,22.547061],[114.078709,22.547059],[114.077494,22.546937],[114.077317,22.546903],[114.076764,22.546799],[114.076458,22.546636],[114.075804,22.546185],[114.075316,22.545635],[114.074774,22.545125],[114.074071,22.544575],[114.073293,22.544069],[114.072499,22.543678],[114.071609,22.543405],[114.070735,22.543296],[114.069505,22.543248],[114.068549,22.543236],[114.067515,22.543274],[114.067049,22.543321],[114.066749,22.543361],[114.066427,22.54341],[114.066213,22.543449],[114.065982,22.543475],[114.065646,22.543495],[114.065292,22.543505],[114.064271,22.543497],[114.063213,22.543489],[114.057451,22.543397],[114.056704,22.543388],[114.055918,22.543379],[114.055383,22.543376],[114.055012,22.543341],[114.054678,22.543286],[114.054021,22.543152],[114.053564,22.543066],[114.053296,22.543028],[114.052994,22.543013],[114.052768,22.543009],[114.047997,22.542972],[114.047232,22.542966],[114.046906,22.542992],[114.046512,22.543064],[114.046233,22.543121],[114.045871,22.543257],[114.045529,22.54343],[114.04521,22.543638],[114.044919,22.543879],[114.04466,22.544149],[114.044436,22.544445],[114.04425,22.544762],[114.044105,22.545098],[114.044003,22.545446],[114.043944,22.545802],[114.043931,22.546163],[114.043962,22.546523],[114.044021,22.546849],[114.044127,22.547349],[114.044288,22.547968],[114.045018,22.549808],[114.046234,22.553091],[114.046329,22.553348],[114.046396,22.553612],[114.046433,22.553882],[114.04644,22.554154],[114.046417,22.554424],[114.046364,22.554692],[114.046282,22.554953],[114.046172,22.555205],[114.046035,22.555445],[114.045871,22.555671],[114.045684,22.55588],[114.045475,22.556071],[114.045245,22.556241],[114.044998,22.556389],[114.044736,22.556512],[114.044462,22.55661],[114.044178,22.556682],[114.043888,22.556727],[114.043611,22.556757],[114.043381,22.556772],[114.04302,22.556783],[114.042675,22.556775],[114.042331,22.556738],[114.042084,22.556701],[114.041831,22.556646],[114.041662,22.556612],[114.041432,22.556583],[114.041064,22.556538],[114.040072,22.556418],[114.038903,22.556293],[114.037779,22.556173],[114.037601,22.556151],[114.037403,22.556137],[114.037107,22.55613],[114.036739,22.55614],[114.036451,22.556168],[114.036216,22.556197],[114.035967,22.556236],[114.035703,22.556286],[114.03545,22.556344],[114.035219,22.556407],[114.033864,22.556785],[114.033709,22.556837],[114.033524,22.556899],[114.033377,22.55695],[114.033105,22.557057],[114.032768,22.557205],[114.032487,22.557315],[114.032316,22.557365],[114.032113,22.557402],[114.03181,22.557433],[114.031576,22.557448],[114.031336,22.557457],[114.031066,22.55747],[114.030884,22.55747],[114.030674,22.557462],[114.030132,22.557431],[114.029732,22.557404],[114.029612,22.557394],[114.029486,22.557378],[114.02939,22.557362],[114.029242,22.55733],[114.029124,22.557299],[114.029015,22.557269],[114.028877,22.557214],[114.02877,22.557166],[114.028507,22.557024],[114.027812,22.556666],[114.026908,22.556203],[114.02667,22.5561],[114.026387,22.55602],[114.025547,22.555855],[114.024795,22.555719],[114.023992,22.555625],[114.023215,22.555584],[114.022391,22.555585],[114.020384,22.555786],[114.018592,22.555751]]}},{"type":"Feature","properties":{"oid":"way/979500218","line":"2","colour":"#DB6D1C"},"geometry":{"type":"LineString","coordinates":[[114.118731,22.546891],[114.114954,22.546085],[114.109651,22.545154],[114.108596,22.544922],[114.107556,22.544624],[114.106894,22.54446],[114.105895,22.544297],[114.10449,22.544034],[114.103485,22.543822],[114.102921,22.543711],[114.102171,22.543563],[114.101508,22.543489],[114.100914,22.543454],[114.100362,22.543499],[114.099791,22.543666],[114.09915,22.544157],[114.098852,22.544467],[114.098488,22.544888],[114.097976,22.54539],[114.097175,22.545943],[114.096753,22.546214],[114.096284,22.546465],[114.095907,22.546602],[114.09532,22.546779],[114.094674,22.546913],[114.093802,22.547051],[114.092929,22.5471],[114.092567,22.54714],[114.092186,22.54721],[114.091949,22.547234],[114.091297,22.547239],[114.088986,22.547188],[114.086904,22.547154],[114.085939,22.547139],[114.085734,22.547135],[114.085613,22.547133],[114.084086,22.547109],[114.083057,22.547093],[114.080928,22.547063],[114.080245,22.547053],[114.0789,22.54703],[114.078671,22.547029],[114.077468,22.546906],[114.077293,22.546873],[114.076746,22.54677],[114.076448,22.546611],[114.075799,22.546164],[114.075313,22.545616],[114.074768,22.545103],[114.074063,22.544551],[114.073282,22.544044],[114.072483,22.54365],[114.071586,22.543375],[114.070707,22.543266],[114.069504,22.543176],[114.068536,22.543165],[114.067504,22.543193],[114.067038,22.543229],[114.066717,22.543266],[114.066413,22.543309],[114.06619,22.543341],[114.065971,22.543359],[114.065623,22.543374],[114.065295,22.543387],[114.064271,22.543382],[114.063212,22.543377],[114.057449,22.543274],[114.056705,22.543269],[114.055913,22.543264],[114.055384,22.543257],[114.055021,22.543234],[114.054697,22.543192],[114.054034,22.543048],[114.053581,22.542976],[114.053294,22.54295],[114.052999,22.542929],[114.05277,22.542924],[114.047994,22.542876],[114.047227,22.542868],[114.046889,22.542883],[114.0465,22.542935],[114.046199,22.542996],[114.045825,22.543119],[114.045462,22.543293],[114.045124,22.543505],[114.044815,22.543753],[114.04454,22.544033],[114.044303,22.54434],[114.044107,22.544672],[114.043954,22.545022],[114.043847,22.545387],[114.043788,22.54576],[114.043777,22.546138],[114.043814,22.546514],[114.043889,22.546896],[114.043993,22.547358],[114.044186,22.547989],[114.044856,22.549847],[114.046057,22.553129],[114.046144,22.553375],[114.046203,22.553628],[114.046233,22.553885],[114.046235,22.554144],[114.046208,22.554401],[114.046152,22.554655],[114.046082,22.554877],[114.045977,22.555117],[114.045838,22.555346],[114.045697,22.555546],[114.045527,22.555744],[114.04535,22.555921],[114.045138,22.556081],[114.044926,22.556211],[114.044668,22.55634],[114.044407,22.556455],[114.044135,22.556527],[114.043851,22.556575],[114.043581,22.556604],[114.043357,22.556622],[114.043001,22.556631],[114.042667,22.556616],[114.042355,22.556596],[114.042108,22.556567],[114.041859,22.556552],[114.041672,22.556536],[114.041439,22.556509],[114.041066,22.556459],[114.040084,22.556344],[114.038913,22.556213],[114.037791,22.556093],[114.037601,22.556075],[114.037407,22.55607],[114.037108,22.556085],[114.036739,22.556112],[114.036449,22.556141],[114.036212,22.556169],[114.035962,22.556209],[114.035697,22.556259],[114.035442,22.556317],[114.035211,22.55638],[114.033855,22.556759],[114.033699,22.556811],[114.033514,22.556873],[114.033366,22.556925],[114.033092,22.557032],[114.032756,22.55718],[114.032477,22.557289],[114.032308,22.557338],[114.032109,22.557375],[114.031807,22.557406],[114.031575,22.557421],[114.031335,22.55743],[114.031066,22.557442],[114.030885,22.557442],[114.030676,22.557434],[114.030134,22.557404],[114.029734,22.557377],[114.029616,22.557367],[114.029491,22.55735],[114.029396,22.557335],[114.029249,22.557303],[114.029133,22.557273],[114.029025,22.557243],[114.02889,22.557189],[114.028784,22.557141],[114.028521,22.557],[114.027827,22.556642],[114.026922,22.556178],[114.026681,22.556074],[114.026395,22.555994],[114.025553,22.555828],[114.0248,22.555692],[114.023994,22.555597],[114.023216,22.555557],[114.022389,22.555557],[114.020377,22.555751],[114.018593,22.555715]]}},{"type":"Feature","properties":{"oid":"way/373438924","line":"7","colour":"#0035AD"},"geometry":{"type":"LineString","coordinates":[[114.026274,22.53085],[114.026431,22.530576],[114.026613,22.530309],[114.026907,22.529936],[114.027197,22.529652],[114.027413,22.52944],[114.027632,22.529243],[114.027929,22.529013],[114.02837,22.528685],[114.02963,22.527938],[114.030634,22.527398],[114.031544,22.526894],[114.032629,22.526239],[114.03467,22.525088],[114.035648,22.524553],[114.037024,22.52378],[114.037577,22.523479],[114.03801,22.523247],[114.039554,22.522419],[114.039729,22.522325],[114.039837,22.522274],[114.03993,22.522234],[114.040052,22.522187],[114.040169,22.522148],[114.04047,22.522061],[114.040632,22.522025],[114.040782,22.521995],[114.040922,22.521975],[114.041069,22.521955],[114.041214,22.521945],[114.041359,22.521944],[114.041511,22.521956],[114.041634,22.521975],[114.041754,22.521995],[114.041864,22.522032],[114.041959,22.522079],[114.042044,22.522128],[114.042099,22.522171],[114.042142,22.522233],[114.042191,22.522309],[114.042406,22.522691],[114.042609,22.523013],[114.042686,22.523134],[114.042779,22.523268],[114.042906,22.523447],[114.043034,22.523613],[114.043186,22.523796],[114.043364,22.524013],[114.044371,22.525235],[114.044458,22.525321],[114.044565,22.525414],[114.044684,22.525493],[114.04478,22.525541],[114.044883,22.525576],[114.045007,22.525605],[114.045102,22.525624],[114.04542,22.525676],[114.045562,22.525696],[114.045765,22.525716],[114.046469,22.525777],[114.046626,22.525789],[114.046788,22.525799],[114.047308,22.525807],[114.048523,22.525822],[114.049506,22.525832],[114.049747,22.525832],[114.050143,22.525829],[114.051229,22.525842],[114.051789,22.525849],[114.053291,22.52587],[114.053942,22.525879],[114.055977,22.525917],[114.060643,22.52598],[114.062874,22.525937],[114.063242,22.525941],[114.06395,22.52595],[114.064276,22.525938],[114.064581,22.525914],[114.064883,22.525874],[114.065203,22.52578],[114.065545,22.525617],[114.065884,22.52544],[114.066238,22.525276],[114.066605,22.525122],[114.066744,22.525061],[114.06691,22.52499],[114.06705,22.524932],[114.06718,22.524882],[114.067341,22.524824],[114.067498,22.524775],[114.068061,22.524599],[114.069026,22.524303],[114.069703,22.524095],[114.073092,22.523046],[114.073333,22.522996],[114.073615,22.52301],[114.073833,22.523048],[114.074036,22.523147],[114.07422,22.523272],[114.07438,22.52341],[114.074516,22.523562],[114.074645,22.523766],[114.074768,22.524025],[114.075723,22.526422],[114.075792,22.526668],[114.075853,22.526885],[114.075876,22.527082],[114.07591,22.528118],[114.07592,22.528991],[114.075942,22.529259],[114.075999,22.52948],[114.076096,22.52971],[114.077148,22.531615],[114.078302,22.533692],[114.078765,22.534552],[114.079289,22.53549],[114.079439,22.535724],[114.079586,22.53593],[114.079788,22.536163],[114.080008,22.53638],[114.08099,22.537287],[114.081152,22.537444],[114.081297,22.537647],[114.081395,22.537887],[114.08149,22.538091],[114.081566,22.53833],[114.081606,22.538569],[114.081632,22.538772],[114.081636,22.538993],[114.081624,22.53995],[114.081638,22.541137],[114.081677,22.542385],[114.08166,22.5433],[114.081654,22.543913],[114.081644,22.545663]]}},{"type":"Feature","properties":{"oid":"way/865658049","line":"7","colour":"#0035AD"},"geometry":{"type":"LineString","coordinates":[[114.026204,22.530822],[114.026364,22.530541],[114.02655,22.53027],[114.026848,22.529891],[114.027136,22.52961],[114.027354,22.529395],[114.027574,22.529197],[114.027867,22.528964],[114.028317,22.528632],[114.029578,22.527869],[114.030579,22.527329],[114.031494,22.526828],[114.032571,22.526162],[114.034628,22.525031],[114.035607,22.524495],[114.036982,22.523722],[114.037536,22.523421],[114.037969,22.523188],[114.039513,22.522361],[114.03969,22.522266],[114.039801,22.522213],[114.039896,22.522172],[114.040022,22.522124],[114.040141,22.522084],[114.040446,22.521996],[114.040612,22.52196],[114.040765,22.521928],[114.040907,22.521908],[114.041057,22.521888],[114.041207,22.521877],[114.041358,22.521876],[114.041516,22.521889],[114.041643,22.521908],[114.041769,22.52193],[114.041889,22.52197],[114.041992,22.522021],[114.042083,22.522073],[114.04215,22.522126],[114.0422,22.522197],[114.04225,22.522277],[114.042466,22.522658],[114.042668,22.522979],[114.042745,22.523099],[114.042836,22.523232],[114.042962,22.523409],[114.043089,22.523573],[114.04324,22.523755],[114.043418,22.523972],[114.044423,22.525192],[114.044505,22.525274],[114.044607,22.525362],[114.044718,22.525436],[114.044806,22.525479],[114.044901,22.525511],[114.04502,22.525539],[114.045112,22.525558],[114.045428,22.52561],[114.045568,22.525629],[114.045768,22.525649],[114.046472,22.52571],[114.046627,22.525722],[114.046787,22.525732],[114.047305,22.52574],[114.04852,22.525755],[114.049502,22.525765],[114.049743,22.525765],[114.050137,22.525761],[114.051783,22.525782],[114.05394,22.525812],[114.055975,22.52585],[114.06064,22.525913],[114.062871,22.525869],[114.063239,22.525874],[114.063945,22.525883],[114.064267,22.525871],[114.064568,22.525847],[114.064863,22.525808],[114.065171,22.525717],[114.065506,22.525557],[114.065845,22.525381],[114.066182,22.525211],[114.066522,22.52503],[114.066682,22.524948],[114.066853,22.52487],[114.066993,22.524812],[114.067137,22.524755],[114.067286,22.524703],[114.067453,22.524646],[114.068018,22.524469],[114.06898,22.524174],[114.069662,22.523965],[114.07306,22.522915],[114.073316,22.522876],[114.073593,22.522881],[114.073855,22.522928],[114.074081,22.523028],[114.074278,22.523168],[114.074458,22.523329],[114.074602,22.523509],[114.074717,22.523721],[114.074832,22.524],[114.075788,22.526402],[114.075858,22.526651],[114.075921,22.526873],[114.075945,22.527078],[114.075979,22.528117],[114.075989,22.528989],[114.076011,22.529248],[114.076065,22.52946],[114.076158,22.529683],[114.077209,22.531584],[114.078363,22.533662],[114.078826,22.534522],[114.079349,22.535457],[114.079497,22.535688],[114.079641,22.53589],[114.079839,22.536119],[114.080056,22.536333],[114.081038,22.53724],[114.081205,22.537401],[114.081365,22.53761],[114.081505,22.537849],[114.081606,22.538075],[114.081681,22.538301],[114.081717,22.538541],[114.081732,22.538764],[114.081739,22.53899],[114.081697,22.539946],[114.081743,22.541128],[114.081746,22.542386],[114.081729,22.543301],[114.081723,22.543913],[114.081713,22.545663]]}},{"type":"Feature","properties":{"oid":"way/31425197","line":"1","colour":"#00AB39"},"geometry":{"type":"LineString","coordinates":[[114.107139,22.546706],[114.106095,22.546351],[114.105631,22.546189],[114.105191,22.546007],[114.104669,22.545773],[114.104321,22.545587],[114.10398,22.545398],[114.103608,22.545179],[114.102855,22.5447],[114.101924,22.544103],[114.101633,22.543928],[114.101354,22.543791],[114.101068,22.543697],[114.100781,22.543632],[114.100478,22.543577],[114.100152,22.543544],[114.09267,22.543428],[114.090847,22.543518],[114.089762,22.5435],[114.088243,22.54347],[114.087788,22.543436],[114.086629,22.543258],[114.08606,22.543204],[114.082992,22.543134],[114.08152,22.543179],[114.079946,22.543149],[114.078549,22.543122],[114.076449,22.543013]]}},{"type":"Feature","properties":{"oid":"way/709904585","line":"1","colour":"#00AB39"},"geometry":{"type":"LineString","coordinates":[[114.107161,22.546642],[114.106118,22.546289],[114.105667,22.546121],[114.105218,22.545943],[114.104703,22.545708],[114.104379,22.545522],[114.104029,22.545297],[114.103666,22.545068],[114.102927,22.544596],[114.101999,22.543986],[114.101754,22.543855],[114.101527,22.543755],[114.101314,22.543681],[114.101063,22.543611],[114.100787,22.543554],[114.100478,22.543511],[114.100159,22.543491],[114.092666,22.543355],[114.090841,22.543161],[114.089762,22.543147],[114.088708,22.54313],[114.087377,22.54315],[114.082989,22.543051],[114.081492,22.542974],[114.079944,22.542943],[114.078562,22.54292],[114.076449,22.542935]]}},{"type":"Feature","properties":{"oid":"way/838104569","line":"6","colour":"#3ABCA8"},"geometry":{"type":"LineString","coordinates":[[114.053028,22.590279],[114.059765,22.579435],[114.059933,22.579157],[114.060122,22.578886],[114.06039,22.578561],[114.060699,22.578285],[114.060926,22.578117],[114.06112,22.578006],[114.061333,22.577897],[114.061575,22.577784],[114.061886,22.577671],[114.062165,22.577577],[114.062504,22.577463],[114.06282,22.577365],[114.06381,22.577027],[114.064752,22.576702],[114.065148,22.576551],[114.065615,22.576373],[114.066562,22.575835],[114.067515,22.575014],[114.070101,22.573597],[114.072672,22.572548],[114.074368,22.57229],[114.07636,22.57241],[114.077442,22.572602],[114.080162,22.573118],[114.080781,22.573191],[114.081378,22.573149],[114.081669,22.573092],[114.081916,22.572983],[114.082348,22.572738],[114.083559,22.571947],[114.084302,22.571356],[114.085122,22.57065],[114.08604,22.569436],[114.087009,22.5669],[114.088332,22.564267],[114.088825,22.56339],[114.089148,22.562816],[114.089576,22.562005],[114.089931,22.561332],[114.090228,22.560715],[114.090373,22.560319],[114.090446,22.560024],[114.090505,22.559652],[114.090529,22.55934],[114.090598,22.558572],[114.090604,22.558151],[114.090633,22.557339],[114.090668,22.556397],[114.090942,22.552869],[114.091012,22.551718],[114.091038,22.551309],[114.091119,22.550007],[114.091188,22.545508],[114.09122,22.542128]]}},{"type":"Feature","properties":{"oid":"way/979550859","line":"6","colour":"#3ABCA8"},"geometry":{"type":"LineString","coordinates":[[114.053323,22.589455],[114.059664,22.579223],[114.059805,22.578998],[114.059953,22.578772],[114.060125,22.578552],[114.060339,22.578334],[114.060627,22.578112],[114.060883,22.577944],[114.061125,22.577809],[114.061434,22.577672],[114.061787,22.577553],[114.062773,22.577226],[114.063761,22.576885],[114.064732,22.576549],[114.065109,22.576411],[114.065518,22.576238],[114.066478,22.575703],[114.067497,22.574987],[114.070088,22.573567],[114.072719,22.572479],[114.074287,22.572175],[114.076376,22.572277],[114.079809,22.572932],[114.080571,22.572978],[114.081352,22.572909],[114.081869,22.572812],[114.08233,22.572629],[114.083543,22.571919],[114.084266,22.571315],[114.085085,22.570616],[114.085943,22.569407],[114.086627,22.567721],[114.086969,22.566878],[114.088301,22.564253],[114.088637,22.563656],[114.088795,22.563376],[114.089118,22.562802],[114.089546,22.561991],[114.0899,22.561319],[114.090197,22.560704],[114.09034,22.56031],[114.090412,22.560018],[114.090471,22.559649],[114.090495,22.559338],[114.090564,22.558571],[114.09057,22.55815],[114.090599,22.557337],[114.090634,22.556396],[114.090908,22.552867],[114.09098,22.551889],[114.091006,22.55131],[114.091085,22.550006],[114.091154,22.545508],[114.091186,22.542127]]}},{"type":"Feature","properties":{"oid":"way/1256688997","line":"11","colour":"#6A1D44"},"geometry":{"type":"LineString","coordinates":[[114.082979,22.540742],[114.084145,22.540752],[114.086328,22.540726],[114.086532,22.54074],[114.086735,22.540775],[114.088683,22.541426],[114.088927,22.5415],[114.089213,22.541538],[114.089495,22.541555],[114.091376,22.541521],[114.093514,22.541533],[114.093982,22.541525],[114.095168,22.541476],[114.095575,22.541422],[114.09599,22.541327],[114.096363,22.541246],[114.096814,22.54118],[114.097261,22.541162],[114.099193,22.541187],[114.09993,22.54122],[114.100931,22.541218],[114.104799,22.541234]]}},{"type":"Feature","properties":{"oid":"way/1256688998","line":"11","colour":"#6A1D44"},"geometry":{"type":"LineString","coordinates":[[114.082983,22.540668],[114.084146,22.540678],[114.086324,22.540667],[114.086543,22.540677],[114.086789,22.540713],[114.088702,22.541371],[114.088905,22.541414],[114.089153,22.541455],[114.089387,22.541472],[114.091021,22.541425],[114.093586,22.541449],[114.093975,22.541443],[114.095159,22.541388],[114.095573,22.541349],[114.095982,22.541262],[114.096352,22.541183],[114.096797,22.541113],[114.097253,22.541086],[114.099214,22.541116],[114.099443,22.541099],[114.099721,22.541074],[114.099959,22.54107],[114.100933,22.541069],[114.104796,22.541109]]}},{"type":"Feature","properties":{"oid":"way/1323204892","line":"14","colour":"#f2c75c"},"geometry":{"type":"LineString","coordinates":[[114.070282,22.543095],[114.070816,22.543167],[114.071481,22.543284],[114.072277,22.543485],[114.072826,22.543668],[114.073299,22.543894],[114.073828,22.54419],[114.074319,22.544613],[114.074701,22.54509],[114.074959,22.545596],[114.075157,22.546118],[114.075473,22.547721],[114.075975,22.551048],[114.077001,22.552859],[114.07771,22.553764],[114.077819,22.553892],[114.077891,22.553975],[114.080651,22.557282],[114.081815,22.558978],[114.082187,22.559545],[114.082991,22.560715],[114.085368,22.564662],[114.086256,22.56569],[114.086996,22.566283],[114.087492,22.566543],[114.088049,22.566738],[114.088683,22.566904]]}},{"type":"Feature","properties":{"oid":"way/1337476645","line":"14","colour":"#f2c75c"},"geometry":{"type":"LineString","coordinates":[[114.070295,22.54298],[114.070848,22.54306],[114.071506,22.543179],[114.072303,22.543375],[114.072869,22.543558],[114.07338,22.543771],[114.073918,22.544091],[114.074426,22.544529],[114.074849,22.545041],[114.075116,22.54555],[114.075312,22.546057],[114.075614,22.547653],[114.076077,22.550939],[114.077097,22.552788],[114.08074,22.557147],[114.081926,22.558904],[114.083107,22.560653],[114.085579,22.564537],[114.08634,22.565575],[114.08708,22.566181],[114.087554,22.566428],[114.088092,22.566611],[114.088719,22.566775]]}},{"type":"Feature","properties":{"oid":"way/1346638587","line":"11","colour":"#6A1D44"},"geometry":{"type":"LineString","coordinates":[[114.065237,22.542674],[114.066481,22.5427],[114.066924,22.542681],[114.067272,22.542645],[114.067551,22.542572],[114.067749,22.542488],[114.06803,22.542312],[114.068317,22.542091],[114.068632,22.541823],[114.06958,22.541034],[114.06995,22.540807],[114.070541,22.540557],[114.070961,22.540436],[114.071326,22.540339],[114.071628,22.540276],[114.072046,22.540196],[114.072481,22.540134],[114.074134,22.540038],[114.074888,22.540029],[114.076306,22.540128],[114.07905,22.540319],[114.080665,22.54056],[114.081211,22.54063],[114.081499,22.540649],[114.081815,22.540658],[114.082983,22.540668]]}},{"type":"Feature","properties":{"oid":"way/1346638588","line":"11","colour":"#6A1D44"},"geometry":{"type":"LineString","coordinates":[[114.082979,22.540742],[114.081815,22.540732],[114.081495,22.540722],[114.081198,22.540704],[114.080663,22.540639],[114.07904,22.540442],[114.076294,22.540251],[114.074878,22.540153],[114.074144,22.540158],[114.072544,22.540257],[114.071641,22.540398],[114.071116,22.540521],[114.070594,22.540708],[114.070092,22.540928],[114.0697,22.541183],[114.068227,22.542488],[114.06799,22.542662],[114.067716,22.542805],[114.067428,22.54293],[114.067006,22.54301],[114.066492,22.543049],[114.065231,22.543037]]}},{"type":"Feature","properties":{"oid":"way/374262097","line":"7","colour":"#0035AD"},"geometry":{"type":"LineString","coordinates":[[114.081644,22.545663],[114.081594,22.547325],[114.081568,22.549293],[114.081536,22.551235],[114.081534,22.551777],[114.081509,22.552927],[114.081465,22.554036],[114.081417,22.556816],[114.081422,22.556988]]}},{"type":"Feature","properties":{"oid":"way/979554674","line":"7","colour":"#0035AD"},"geometry":{"type":"LineString","coordinates":[[114.081713,22.545663],[114.081662,22.547326],[114.081636,22.549294],[114.081604,22.551235],[114.081602,22.551778],[114.081578,22.552929],[114.081533,22.554037],[114.081485,22.556815],[114.08149,22.556987]]}},{"type":"Feature","properties":{"oid":"way/1346661176","line":"3","colour":"#00A2E1"},"geometry":{"type":"LineString","coordinates":[[114.094898,22.551694],[114.094323,22.551724],[114.092243,22.551901],[114.091559,22.551952],[114.091076,22.551957],[114.09003,22.551953],[114.089121,22.551914],[114.084949,22.551873],[114.083749,22.551928],[114.082209,22.551911],[114.08067,22.551894],[114.075878,22.551841]]}},{"type":"Feature","properties":{"oid":"way/1346661177","line":"3","colour":"#00A2E1"},"geometry":{"type":"LineString","coordinates":[[114.076661,22.551617],[114.080661,22.551678],[114.082217,22.551698],[114.08376,22.551718],[114.084945,22.551799],[114.089115,22.551845],[114.090036,22.551797],[114.091103,22.55181],[114.092259,22.551812],[114.092914,22.551786],[114.094307,22.551661],[114.094898,22.551634]]}},{"type":"Feature","properties":{"oid":"way/674566929","line":"3","colour":"#00A2E1"},"geometry":{"type":"LineString","coordinates":[[114.103861,22.551003],[114.103376,22.551164],[114.101995,22.55156],[114.101112,22.55175],[114.100436,22.551826],[114.099802,22.551835],[114.099173,22.551825],[114.09806,22.551808],[114.097149,22.55173],[114.094898,22.551694]]}},{"type":"Feature","properties":{"oid":"way/979500198","line":"3","colour":"#00A2E1"},"geometry":{"type":"LineString","coordinates":[[114.094898,22.551634],[114.09715,22.551661],[114.098076,22.551603],[114.099177,22.551621],[114.100496,22.551642],[114.101256,22.551592],[114.101974,22.551478],[114.102655,22.551314],[114.103306,22.55113],[114.103859,22.550947]]}}]}