{"type":"FeatureCollection","features":[{"type":"Feature","properties":{"oid":"node/1657111615","kind":"station","name":"通新岭","zh":"通新岭","en":"Tongxinling","lines":"3,6","colours":"#00A2E1,#3ABCA8"},"geometry":{"type":"Point","coordinates":[114.091046,22.551645]}},{"type":"Feature","properties":{"oid":"node/6694397103","kind":"station","name":"科学馆","zh":"科学馆","en":"Science Museum","lines":"1,6","colours":"#00AB39,#3ABCA8"},"geometry":{"type":"Point","coordinates":[114.09048,22.542714]}},{"type":"Feature","properties":{"oid":"node/6696703920","kind":"station","name":"华强路","zh":"华强路","en":"Huaqiang Road","lines":"1","colours":"#00AB39"},"geometry":{"type":"Point","coordinates":[114.079944,22.54304]}},{"type":"Feature","properties":{"oid":"node/6715085281","kind":"station","name":"华强北","zh":"华强北","en":"Huaqiang North","lines":"2,7,8","colours":"#DB6D1C,#0035AD,#DB6D1C"},"geometry":{"type":"Point","coordinates":[114.080965,22.546334]}},{"type":"Feature","properties":{"oid":"node/6715085282","kind":"station","name":"燕南","zh":"燕南","en":"Yannan","lines":"2,8","colours":"#DB6D1C,#DB6D1C"},"geometry":{"type":"Point","coordinates":[114.086904,22.547165]}},{"type":"Feature","properties":{"oid":"node/9310728711","kind":"station","name":"华新","zh":"华新","en":"Huaxin","lines":"3,7","colours":"#00A2E1,#0035AD"},"geometry":{"type":"Point","coordinates":[114.08177,22.551793]}},{"type":"Feature","properties":{"oid":"node/9328278154","kind":"station","name":"华强南","zh":"华强南","en":"Huaqiang South","lines":"7,11","colours":"#0035AD,#6A1D44"},"geometry":{"type":"Point","coordinates":[114.08232,22.540328]}},{"type":"Feature","properties":{"oid":"node/2548149942","kind":"exit","ref":"D","station":"科学馆"},"geometry":{"type":"Point","coordinates":[114.090534,22.543044]}},{"type":"Feature","properties":{"oid":"node/2548149956","kind":"exit","ref":"A","station":"科学馆"},"geometry":{"type":"Point","coordinates":[114.090552,22.543591]}},{"type":"Feature","properties":{"oid":"node/2548149978","kind":"exit","ref":"C","station":"科学馆"},"geometry":{"type":"Point","coordinates":[114.08899,22.543021]}},{"type":"Feature","properties":{"oid":"node/2548150020","kind":"exit","ref":"B","station":"科学馆"},"geometry":{"type":"Point","coordinates":[114.088986,22.543579]}},{"type":"Feature","properties":{"oid":"node/2887851486","kind":"exit","ref":"C","station":"华新"},"geometry":{"type":"Point","coordinates":[114.082283,22.551852]}},{"type":"Feature","properties":{"oid":"node/2887859101","kind":"exit","ref":"D","station":"通新岭"},"geometry":{"type":"Point","coordinates":[114.090399,22.551992]}},{"type":"Feature","properties":{"oid":"node/2887859106","kind":"exit","ref":"A1","station":"通新岭"},"geometry":{"type":"Point","coordinates":[114.090333,22.551581]}},{"type":"Feature","properties":{"oid":"node/2887859158","kind":"exit","ref":"D","station":"华新"},"geometry":{"type":"Point","coordinates":[114.080806,22.551936]}},{"type":"Feature","properties":{"oid":"node/3424499352","kind":"exit","ref":"C","station":"华强路"},"geometry":{"type":"Point","coordinates":[114.079184,22.542769]}},{"type":"Feature","properties":{"oid":"node/3424499353","kind":"exit","ref":"A","station":"华强路"},"geometry":{"type":"Point","coordinates":[114.080891,22.543407]}},{"type":"Feature","properties":{"oid":"node/3424499366","kind":"exit","ref":"D","station":"华强路"},"geometry":{"type":"Point","coordinates":[114.080738,22.542842]}},{"type":"Feature","properties":{"oid":"node/3424499367","kind":"exit","ref":"B","station":"华强路"},"geometry":{"type":"Point","coordinates":[114.078903,22.543472]}},{"type":"Feature","properties":{"oid":"node/4471842146","kind":"exit","ref":"C","station":"通新岭"},"geometry":{"type":"Point","coordinates":[114.091775,22.552058]}},{"type":"Feature","properties":{"oid":"node/4845594421","kind":"exit","ref":"D2","station":"华强北"},"geometry":{"type":"Point","coordinates":[114.081903,22.545364]}},{"type":"Feature","properties":{"oid":"node/4845599622","kind":"exit","ref":"E2","station":"华强北"},"geometry":{"type":"Point","coordinates":[114.081917,22.546219]}},{"type":"Feature","properties":{"oid":"node/4845623221","kind":"exit","ref":"A","station":"华强北"},"geometry":{"type":"Point","coordinates":[114.080621,22.546826]}},{"type":"Feature","properties":{"oid":"node/4846059151","kind":"exit","ref":"B","station":"华强北"},"geometry":{"type":"Point","coordinates":[114.081465,22.547493]}},{"type":"Feature","properties":{"oid":"node/4865905721","kind":"exit","ref":"C","station":"华强北"},"geometry":{"type":"Point","coordinates":[114.079354,22.547555]}},{"type":"Feature","properties":{"oid":"node/5187498606","kind":"exit","ref":"A","station":"华强南"},"geometry":{"type":"Point","coordinates":[114.081951,22.538866]}},{"type":"Feature","properties":{"oid":"node/5187498607","kind":"exit","ref":"D","station":"华强南"},"geometry":{"type":"Point","coordinates":[114.081489,22.539313]}},{"type":"Feature","properties":{"oid":"node/5187499035","kind":"exit","ref":"F","station":"华新"},"geometry":{"type":"Point","coordinates":[114.081296,22.552704]}},{"type":"Feature","properties":{"oid":"node/5187499052","kind":"exit","ref":"B","station":"华强南"},"geometry":{"type":"Point","coordinates":[114.081845,22.541067]}},{"type":"Feature","properties":{"oid":"node/5187499055","kind":"exit","ref":"B","station":"华新"},"geometry":{"type":"Point","coordinates":[114.082315,22.551322]}},{"type":"Feature","properties":{"oid":"node/5187499077","kind":"exit","ref":"C","station":"华强南"},"geometry":{"type":"Point","coordinates":[114.081438,22.540377]}},{"type":"Feature","properties":{"oid":"node/5187499105","kind":"exit","ref":"E","station":"华新"},"geometry":{"type":"Point","coordinates":[114.081698,22.552437]}},{"type":"Feature","properties":{"oid":"node/8087236428","kind":"exit","ref":"E","station":"科学馆"},"geometry":{"type":"Point","coordinates":[114.090996,22.541756]}},{"type":"Feature","properties":{"oid":"node/11708590550","kind":"exit","ref":"E2","station":"通新岭"},"geometry":{"type":"Point","coordinates":[114.091316,22.550597]}},{"type":"Feature","properties":{"oid":"node/11708590551","kind":"exit","ref":"E1","station":"通新岭"},"geometry":{"type":"Point","coordinates":[114.091299,22.550178]}},{"type":"Feature","properties":{"oid":"node/11708590552","kind":"exit","ref":"F","station":"通新岭"},"geometry":{"type":"Point","coordinates":[114.090801,22.549997]}},{"type":"Feature","properties":{"oid":"node/11708590553","kind":"exit","ref":"A2","station":"通新岭"},"geometry":{"type":"Point","coordinates":[114.090747,22.55104]}},{"type":"Feature","properties":{"oid":"node/11708602525","kind":"exit","ref":"F","station":"科学馆"},"geometry":{"type":"Point","coordinates":[114.091493,22.541756]}},{"type":"Feature","properties":{"oid":"node/11878283450","kind":"exit","ref":"B","station":"燕南"},"geometry":{"type":"Point","coordinates":[114.088257,22.54709]}},{"type":"Feature","properties":{"oid":"node/11878283451","kind":"exit","ref":"A","station":"燕南"},"geometry":{"type":"Point","coordinates":[114.0878,22.546448]}},{"type":"Feature","properties":{"oid":"node/11878283452","kind":"exit","ref":"C","station":"燕南"},"geometry":{"type":"Point","coordinates":[114.085684,22.54752]}},{"type":"Feature","properties":{"oid":"node/11878353991","kind":"exit","ref":"E1","station":"华强北"},"geometry":{"type":"Point","coordinates":[114.081919,22.545953]}},{"type":"Feature","properties":{"oid":"node/11878354004","kind":"exit","ref":"D1","station":"华强北"},"geometry":{"type":"Point","coordinates":[114.081911,22.545114]}},{"type":"Feature","properties":{"oid":"node/12127828676","kind":"exit","ref":"17","station":"华强北"},"geometry":{"type":"Point","coordinates":[114.081703,22.547711]}},{"type":"Feature","properties":{"oid":"node/12127828677","kind":"exit","ref":"16","station":"华强北"},"geometry":{"type":"Point","coordinates":[114.081286,22.547713]}},{"type":"Feature","properties":{"oid":"node/12127828678","kind":"exit","ref":"15","station":"华强北"},"geometry":{"type":"Point","coordinates":[114.081708,22.54797]}},{"type":"Feature","properties":{"oid":"node/12127828679","kind":"exit","ref":"14","station":"华强北"},"geometry":{"type":"Point","coordinates":[114.081708,22.548136]}},{"type":"Feature","properties":{"oid":"node/12127828680","kind":"exit","ref":"13","station":"华强北"},"geometry":{"type":"Point","coordinates":[114.081708,22.548302]}},{"type":"Feature","properties":{"oid":"node/12127828681","kind":"exit","ref":"12","station":"华强北"},"geometry":{"type":"Point","coordinates":[114.081278,22.548372]}},{"type":"Feature","properties":{"oid":"node/12127828682","kind":"exit","ref":"11","station":"华强北"},"geometry":{"type":"Point","coordinates":[114.081708,22.548469]}},{"type":"Feature","properties":{"oid":"node/12127828683","kind":"exit","ref":"10","station":"华强北"},"geometry":{"type":"Point","coordinates":[114.081325,22.548556]}},{"type":"Feature","properties":{"oid":"node/12127828684","kind":"exit","ref":"9","station":"华强北"},"geometry":{"type":"Point","coordinates":[114.081705,22.548645]}},{"type":"Feature","properties":{"oid":"node/12127828685","kind":"exit","ref":"8","station":"华强北"},"geometry":{"type":"Point","coordinates":[114.081715,22.548992]}},{"type":"Feature","properties":{"oid":"node/12127828686","kind":"exit","ref":"7","station":"华强北"},"geometry":{"type":"Point","coordinates":[114.081323,22.548995]}},{"type":"Feature","properties":{"oid":"node/12127828687","kind":"exit","ref":"6","station":"华新"},"geometry":{"type":"Point","coordinates":[114.081325,22.549313]}},{"type":"Feature","properties":{"oid":"node/12127828688","kind":"exit","ref":"5","station":"华新"},"geometry":{"type":"Point","coordinates":[114.081327,22.549484]}},{"type":"Feature","properties":{"oid":"node/12127828689","kind":"exit","ref":"4","station":"华新"},"geometry":{"type":"Point","coordinates":[114.08133,22.549659]}},{"type":"Feature","properties":{"oid":"node/12127828690","kind":"exit","ref":"3","station":"华新"},"geometry":{"type":"Point","coordinates":[114.081715,22.550173]}},{"type":"Feature","properties":{"oid":"node/12127828691","kind":"exit","ref":"2","station":"华新"},"geometry":{"type":"Point","coordinates":[114.081315,22.55017]}},{"type":"Feature","properties":{"oid":"node/12127828692","kind":"exit","ref":"A2","station":"华新"},"geometry":{"type":"Point","coordinates":[114.0813,22.551069]}},{"type":"Feature","properties":{"oid":"node/12127828693","kind":"exit","ref":"1","station":"华新"},"geometry":{"type":"Point","coordinates":[114.081314,22.550654]}},{"type":"Feature","properties":{"oid":"node/12127875079","kind":"exit","ref":"A1","station":"华新"},"geometry":{"type":"Point","coordinates":[114.080781,22.551319]}},{"type":"Feature","properties":{"oid":"node/12750748100","kind":"exit","ref":"B","station":"通新岭"},"geometry":{"type":"Point","coordinates":[114.091748,22.551638]}},{"type":"Feature","properties":{"oid":"node/12750793335","kind":"exit","ref":"?","station":"通新岭"},"geometry":{"type":"Point","coordinates":[114.091465,22.552037]}}]}