{"type":"FeatureCollection","features":[{"type":"Feature","properties":{},"geometry":{"type":"Polygon","coordinates":[[[114.049531,22.503401],[114.049255,22.50348],[114.048992,22.503577],[114.048667,22.503721],[114.048182,22.503971],[114.047779,22.504162],[114.047337,22.504387],[114.046991,22.504534],[114.046707,22.504645],[114.046452,22.504739],[114.046197,22.504804],[114.045832,22.504898],[114.045301,22.504995],[114.044346,22.505143],[114.043745,22.505242],[114.043118,22.505361],[114.042624,22.50546],[114.042345,22.505515],[114.042082,22.505614],[114.041412,22.505852],[114.04042,22.506219],[114.03888,22.506749],[114.037753,22.507155],[114.036697,22.507512],[114.035774,22.507834],[114.035302,22.508057],[114.034924,22.508336],[114.034562,22.507195],[114.034085,22.506063],[114.033937,22.505717],[114.034004,22.505721],[114.034075,22.505717],[114.034135,22.505707],[114.034162,22.505698],[114.034202,22.505697],[114.034241,22.505696],[114.034297,22.505703],[114.034351,22.505707],[114.034426,22.505706],[114.034614,22.50566],[114.034759,22.505634],[114.034942,22.505609],[114.035136,22.505584],[114.035242,22.505564],[114.035355,22.505546],[114.035478,22.50553],[114.035636,22.505526],[114.035824,22.505496],[114.035974,22.505442],[114.036166,22.505351],[114.036265,22.505339],[114.036356,22.505327],[114.036579,22.505327],[114.036866,22.505302],[114.037158,22.50526],[114.037437,22.50519],[114.038209,22.505091],[114.038727,22.505009],[114.039167,22.504945],[114.039516,22.504868],[114.039837,22.504784],[114.040028,22.504721],[114.040102,22.5047],[114.040226,22.504662],[114.040387,22.504628],[114.040555,22.504582],[114.040737,22.50451],[114.040892,22.504461],[114.041381,22.504266],[114.041766,22.50414],[114.04216,22.503998],[114.042597,22.50383],[114.043011,22.503627],[114.043129,22.503566],[114.043197,22.503535],[114.043386,22.503479],[114.043485,22.503454],[114.043575,22.503435],[114.043622,22.503426],[114.043914,22.503448],[114.044196,22.50344],[114.044391,22.503402],[114.04473,22.503359],[114.044918,22.503312],[114.045049,22.503295],[114.045148,22.503277],[114.04526,22.503251],[114.045396,22.503224],[114.045631,22.503169],[114.04583,22.503127],[114.046067,22.503053],[114.046193,22.503003],[114.046308,22.502953],[114.046412,22.502896],[114.046516,22.502852],[114.046688,22.502789],[114.046913,22.502692],[114.047208,22.502565],[114.047391,22.502476],[114.047545,22.502389],[114.047612,22.502357],[114.047675,22.502292],[114.047741,22.502239],[114.047818,22.502203],[114.047885,22.502186],[114.047954,22.502163],[114.048028,22.502014],[114.048157,22.501972],[114.048237,22.501935],[114.048352,22.501874],[114.048399,22.501866],[114.04844,22.501848],[114.048525,22.501755],[114.048624,22.501608],[114.048685,22.50158],[114.048748,22.5015],[114.048788,22.501522],[114.048819,22.501525],[114.050118,22.501394],[114.050838,22.50135],[114.051282,22.501354],[114.051727,22.501392],[114.05209,22.50144],[114.052512,22.501522],[114.053141,22.501699],[114.053685,22.501909],[114.055817,22.502839],[114.055867,22.502841],[114.055924,22.502829],[114.056096,22.502756],[114.056236,22.502714],[114.056298,22.502701],[114.056321,22.502716],[114.056387,22.502688],[114.056441,22.502714],[114.056444,22.502778],[114.056633,22.502916],[114.056869,22.503199],[114.057017,22.503465],[114.057109,22.503654],[114.057393,22.50422],[114.05776,22.504985],[114.057906,22.505357],[114.057976,22.505377],[114.058012,22.505499],[114.057982,22.505527],[114.057968,22.505537],[114.058036,22.505801],[114.058089,22.50608],[114.058122,22.506344],[114.058141,22.506704],[114.058186,22.507981],[114.058221,22.508472],[114.058269,22.508833],[114.058378,22.509305],[114.058486,22.50971],[114.05862,22.510109],[114.05868,22.510268],[114.05878,22.510484],[114.058882,22.510724],[114.059014,22.510969],[114.059081,22.51097],[114.059143,22.511099],[114.059119,22.511155],[114.059392,22.511606],[114.059567,22.511843],[114.059976,22.512355],[114.060546,22.512921],[114.061216,22.513473],[114.062812,22.514536],[114.063054,22.514689],[114.064298,22.515519],[114.064658,22.515735],[114.065073,22.515916],[114.065628,22.516041],[114.06636,22.516151],[114.068238,22.51641],[114.068733,22.516482],[114.069046,22.516522],[114.069608,22.516631],[114.071797,22.517233],[114.072091,22.517331],[114.072458,22.517361],[114.072775,22.517343],[114.073073,22.517294],[114.07317,22.517339],[114.073292,22.517526],[114.073344,22.51762],[114.073398,22.517692],[114.073456,22.51778],[114.073446,22.51794],[114.073514,22.518054],[114.073829,22.518256],[114.074142,22.518522],[114.074577,22.518969],[114.074913,22.519326],[114.075361,22.520046],[114.0756,22.52056],[114.076958,22.524467],[114.077156,22.525326],[114.077596,22.526597],[114.078024,22.527821],[114.078391,22.528776],[114.078617,22.529143],[114.078861,22.529404],[114.079083,22.529621],[114.079243,22.529741],[114.079585,22.529929],[114.079887,22.530063],[114.082069,22.530737],[114.084102,22.531362],[114.085119,22.531693],[114.085394,22.531825],[114.085696,22.532009],[114.085825,22.532103],[114.086153,22.532335],[114.08664,22.532794],[114.086664,22.532806],[114.087478,22.533968],[114.087592,22.534053],[114.087566,22.534084],[114.087858,22.534497],[114.088344,22.53517],[114.088597,22.535443],[114.088612,22.535454],[114.088937,22.535703],[114.089294,22.535913],[114.089808,22.536089],[114.090084,22.536155],[114.091456,22.536352],[114.091826,22.536376],[114.092097,22.536363],[114.092447,22.536314],[114.092778,22.536219],[114.093108,22.536087],[114.093464,22.535876],[114.093841,22.535586],[114.094811,22.534613],[114.095084,22.534361],[114.095453,22.5341],[114.095774,22.533918],[114.096249,22.533734],[114.096822,22.533604],[114.097352,22.533556],[114.097879,22.533595],[114.102651,22.534529],[114.103161,22.534613],[114.103353,22.534626],[114.103535,22.534637],[114.103965,22.534631],[114.104429,22.534549],[114.104618,22.534492],[114.10487,22.534415],[114.107554,22.533135],[114.107771,22.532942],[114.107983,22.53266],[114.108113,22.53242],[114.108662,22.531139],[114.108856,22.530801],[114.109224,22.530356],[114.109504,22.530122],[114.110324,22.529579],[114.11043,22.529529],[114.110641,22.529426],[114.110674,22.52948],[114.110825,22.529409],[114.110934,22.529351],[114.111088,22.529254],[114.111192,22.529179],[114.111356,22.529047],[114.111783,22.528537],[114.111812,22.528487],[114.11204,22.528156],[114.112176,22.527695],[114.112297,22.527156],[114.112303,22.52712],[114.112356,22.526789],[114.112364,22.526756],[114.112418,22.526537],[114.112539,22.526051],[114.112839,22.525426],[114.113038,22.525028],[114.113118,22.524866],[114.113424,22.524296],[114.113521,22.524035],[114.113625,22.523841],[114.114133,22.522926],[114.114413,22.522405],[114.114579,22.522092],[114.114646,22.521973],[114.114715,22.521836],[114.114771,22.52171],[114.114828,22.521553],[114.114899,22.521328],[114.115006,22.520967],[114.11505,22.520755],[114.115086,22.520527],[114.115122,22.52015],[114.115124,22.519783],[114.115106,22.519545],[114.115074,22.519307],[114.115001,22.518867],[114.114874,22.518313],[114.114799,22.518038],[114.114766,22.517855],[114.114724,22.517622],[114.115108,22.517575],[114.115253,22.517557],[114.11546,22.517529],[114.115486,22.517635],[114.115553,22.518045],[114.11565,22.518384],[114.115708,22.518625],[114.11576,22.51888],[114.115808,22.519168],[114.115852,22.519442],[114.115889,22.519778],[114.1159,22.519948],[114.115898,22.520101],[114.115889,22.520273],[114.115866,22.520469],[114.115838,22.520698],[114.115674,22.521273],[114.115613,22.521459],[114.115542,22.521642],[114.115437,22.521855],[114.115145,22.522529],[114.11509,22.522637],[114.114982,22.522847],[114.114894,22.523018],[114.114817,22.523158],[114.114761,22.52326],[114.114679,22.523419],[114.114539,22.523649],[114.114386,22.523928],[114.114233,22.524204],[114.11393,22.524753],[114.113721,22.525126],[114.113715,22.525137],[114.113693,22.525214],[114.113715,22.525265],[114.113827,22.525311],[114.113843,22.525318],[114.113795,22.525436],[114.113688,22.525442],[114.113457,22.525632],[114.113424,22.525715],[114.113299,22.526038],[114.11318,22.526427],[114.113109,22.526658],[114.112991,22.527251],[114.112847,22.527973],[114.112682,22.528495],[114.112674,22.528519],[114.112382,22.529013],[114.112365,22.52904],[114.112275,22.529182],[114.112272,22.529282],[114.1123,22.529343],[114.112356,22.529402],[114.112852,22.529649],[114.113142,22.5297],[114.114254,22.53027],[114.115126,22.530668],[114.115562,22.53102],[114.115747,22.531199],[114.115838,22.531313],[114.116007,22.531526],[114.116163,22.531705],[114.116433,22.532117],[114.116472,22.532245],[114.116519,22.532695],[114.11656,22.533066],[114.116617,22.533227],[114.116734,22.533462],[114.116658,22.533496],[114.116785,22.533645],[114.11693,22.533794],[114.117154,22.533948],[114.117322,22.534027],[114.118098,22.534157],[114.118375,22.534275],[114.119828,22.534525],[114.120005,22.534557],[114.120069,22.534568],[114.1202,22.534638],[114.1203,22.534702],[114.1204,22.53478],[114.1205,22.534875],[114.1206,22.534975],[114.120633,22.535015],[114.12069,22.535085],[114.120772,22.535205],[114.121269,22.535964],[114.121729,22.536666],[114.12185,22.53685],[114.12195,22.53699],[114.12205,22.537117],[114.12215,22.537238],[114.12225,22.537347],[114.12235,22.537446],[114.12245,22.537544],[114.12255,22.537638],[114.12265,22.537725],[114.12275,22.53781],[114.12285,22.53789],[114.12295,22.537967],[114.12305,22.53804],[114.12315,22.538107],[114.12325,22.53817],[114.12335,22.53823],[114.124499,22.538929],[114.125439,22.539378],[114.125761,22.539467],[114.126253,22.539451],[114.126805,22.539321],[114.127358,22.539288],[114.127565,22.539311],[114.127683,22.539325],[114.128131,22.539387],[114.128759,22.539648],[114.128776,22.539662],[114.129196,22.540018],[114.129559,22.540477],[114.129872,22.54098],[114.130176,22.541265],[114.130539,22.541548],[114.130562,22.541555],[114.130788,22.541617],[114.130832,22.54162],[114.131135,22.541641],[114.131497,22.541605],[114.132639,22.541369],[114.133407,22.541211],[114.133755,22.541198],[114.134138,22.54122],[114.134512,22.541323],[114.13501,22.541554],[114.136998,22.543035],[114.137234,22.543157],[114.13758,22.543269],[114.13787,22.543307],[114.138116,22.543299],[114.138513,22.543229],[114.139322,22.542979],[114.139428,22.542947],[114.139829,22.542826],[114.140007,22.54279],[114.140309,22.542729],[114.140462,22.542698],[114.140591,22.542693],[114.140711,22.542701],[114.140813,22.54272],[114.14101,22.542751],[114.141146,22.542756],[114.141225,22.542751],[114.141299,22.542716],[114.141371,22.542662],[114.141464,22.542549],[114.141593,22.542381],[114.141699,22.542258],[114.141798,22.542072],[114.141831,22.541992],[114.142297,22.541645],[114.142223,22.5415],[114.142262,22.541449],[114.142185,22.540971],[114.14218,22.540705],[114.142194,22.540581],[114.142248,22.540533],[114.142336,22.540274],[114.142412,22.540107],[114.142552,22.539959],[114.142643,22.53986],[114.142765,22.539764],[114.142903,22.539689],[114.143539,22.539428],[114.14386,22.539321],[114.144069,22.539265],[114.144734,22.539131],[114.145242,22.538999],[114.146419,22.538675],[114.146817,22.538562],[114.14694,22.538508],[114.147046,22.538445],[114.147131,22.538373],[114.147682,22.537763],[114.147866,22.537561],[114.148137,22.537258],[114.148289,22.537124],[114.148438,22.537029],[114.148629,22.536957],[114.148826,22.536911],[114.149007,22.536904],[114.14915,22.53691],[114.149346,22.536951],[114.149655,22.537092],[114.149682,22.537101],[114.14971,22.537113],[114.149736,22.537128],[114.149763,22.537147],[114.149773,22.537182],[114.149604,22.537444],[114.149774,22.537517],[114.149775,22.537528],[114.149191,22.537321],[114.148989,22.537279],[114.14879,22.537302],[114.148599,22.537385],[114.148476,22.537461],[114.148331,22.537619],[114.148246,22.537706],[114.147853,22.538152],[114.14743,22.538617],[114.147335,22.538708],[114.147168,22.53882],[114.14705,22.538881],[114.146173,22.539125],[114.145455,22.539323],[114.145131,22.53942],[114.144915,22.539469],[114.144165,22.539619],[114.143775,22.539736],[114.143135,22.539985],[114.142909,22.540131],[114.142764,22.5403],[114.142661,22.540521],[114.142701,22.540593],[114.142691,22.54077],[114.142748,22.541151],[114.14276,22.541285],[114.142765,22.541337],[114.142758,22.541495],[114.142743,22.541619],[114.142753,22.541709],[114.142807,22.541829],[114.142892,22.541897],[114.142996,22.541961],[114.143176,22.541949],[114.143371,22.541957],[114.143923,22.54195],[114.144014,22.541887],[114.144133,22.541738],[114.144251,22.541385],[114.144257,22.541378],[114.144312,22.541299],[114.144419,22.541369],[114.144347,22.541658],[114.144301,22.541858],[114.144202,22.542065],[114.144064,22.542136],[114.143895,22.542176],[114.143686,22.542219],[114.143529,22.542222],[114.14331,22.542212],[114.143045,22.542206],[114.142866,22.542205],[114.142635,22.542191],[114.142435,22.542187],[114.142243,22.54221],[114.142085,22.542259],[114.141969,22.542353],[114.141522,22.542846],[114.141413,22.542903],[114.141321,22.542934],[114.141224,22.542963],[114.141106,22.542976],[114.140827,22.542989],[114.140615,22.542989],[114.14041,22.542986],[114.140248,22.542984],[114.140149,22.542994],[114.140031,22.543015],[114.13987,22.543068],[114.139676,22.543147],[114.139571,22.543209],[114.139502,22.543269],[114.139392,22.543364],[114.139313,22.543421],[114.139219,22.543479],[114.138846,22.543652],[114.138564,22.543733],[114.138359,22.543773],[114.138015,22.543796],[114.137721,22.543782],[114.137352,22.543697],[114.137119,22.543623],[114.136756,22.543462],[114.136614,22.543432],[114.136453,22.543407],[114.136249,22.54337],[114.136056,22.543303],[114.135949,22.543226],[114.135791,22.543068],[114.135606,22.542823],[114.135359,22.54257],[114.135112,22.542374],[114.134812,22.542141],[114.134562,22.541995],[114.134252,22.541844],[114.133986,22.541782],[114.133766,22.541767],[114.133575,22.541767],[114.133213,22.541834],[114.132686,22.541956],[114.132057,22.542094],[114.131486,22.542218],[114.13116,22.542249],[114.130817,22.542233],[114.130514,22.542174],[114.130308,22.542109],[114.130273,22.542095],[114.130113,22.542027],[114.129954,22.541931],[114.129764,22.541775],[114.129595,22.541599],[114.129403,22.541362],[114.129069,22.540966],[114.128948,22.540814],[114.128753,22.540576],[114.128452,22.540278],[114.128227,22.540137],[114.127969,22.540023],[114.127747,22.539956],[114.127538,22.539909],[114.126972,22.53992],[114.12656,22.540046],[114.125969,22.54014],[114.125518,22.540089],[114.12496,22.539841],[114.123844,22.539236],[114.123608,22.539108],[114.122437,22.538403],[114.121548,22.537621],[114.121095,22.536887],[114.120636,22.536293],[114.119907,22.535213],[114.119615,22.535083],[114.118993,22.535014],[114.117962,22.534848],[114.117525,22.534777],[114.116976,22.534628],[114.116216,22.534113],[114.115905,22.533588],[114.115731,22.533082],[114.115662,22.532227],[114.115623,22.532074],[114.115614,22.532049],[114.115538,22.531833],[114.115521,22.531641],[114.115462,22.531524],[114.115311,22.531363],[114.115153,22.531217],[114.114864,22.530992],[114.114385,22.530734],[114.113738,22.530434],[114.113408,22.530248],[114.113143,22.530091],[114.112997,22.530005],[114.112768,22.529961],[114.112482,22.529895],[114.112195,22.529853],[114.111962,22.529855],[114.111743,22.529875],[114.111559,22.529911],[114.111377,22.530041],[114.111254,22.530072],[114.111038,22.530137],[114.11066,22.53036],[114.110227,22.530674],[114.109878,22.530951],[114.109848,22.530982],[114.109631,22.531209],[114.109358,22.53161],[114.109175,22.532239],[114.108923,22.532987],[114.108682,22.533344],[114.108459,22.533575],[114.108175,22.533829],[114.10781,22.53404],[114.107343,22.53432],[114.107031,22.534472],[114.106493,22.534733],[114.105103,22.535343],[114.104567,22.535518],[114.10447,22.535576],[114.104441,22.53564],[114.104445,22.535706],[114.104469,22.535775],[114.104608,22.536061],[114.104696,22.536193],[114.10486,22.536399],[114.105139,22.536719],[114.105281,22.536887],[114.105375,22.537065],[114.105023,22.537236],[114.104935,22.53715],[114.104066,22.536274],[114.103983,22.536182],[114.103811,22.536055],[114.103583,22.535898],[114.103221,22.535777],[114.101869,22.53548],[114.101697,22.53544],[114.10145,22.535391],[114.100716,22.535228],[114.100138,22.535109],[114.099972,22.535127],[114.099579,22.535054],[114.099416,22.535],[114.098607,22.534828],[114.09807,22.534729],[114.097588,22.534677],[114.09672,22.53474],[114.09616,22.53499],[114.09588,22.53524],[114.0956,22.53549],[114.09532,22.53574],[114.095056,22.536035],[114.094831,22.536282],[114.094574,22.536527],[114.094219,22.536795],[114.093467,22.537206],[114.092802,22.537414],[114.092284,22.537485],[114.091534,22.537489],[114.090715,22.53741],[114.089654,22.537236],[114.089198,22.53709],[114.088473,22.536825],[114.088179,22.536619],[114.087909,22.536413],[114.087605,22.536118],[114.087378,22.53586],[114.087039,22.535454],[114.086859,22.535212],[114.086645,22.534925],[114.086398,22.534598],[114.08578,22.533733],[114.085646,22.53355],[114.085509,22.533397],[114.085337,22.533241],[114.085189,22.533128],[114.084996,22.532997],[114.084794,22.532885],[114.084562,22.532779],[114.084305,22.532695],[114.084079,22.532627],[114.084016,22.532615],[114.083689,22.532522],[114.08338,22.532423],[114.082363,22.532144],[114.08216,22.532085],[114.082011,22.532068],[114.081917,22.532106],[114.081833,22.532117],[114.080268,22.531713],[114.079608,22.531541],[114.079255,22.531443],[114.079141,22.531411],[114.079089,22.531387],[114.079049,22.531354],[114.079016,22.531313],[114.078947,22.531209],[114.07887,22.531105],[114.07874,22.530957],[114.078605,22.530816],[114.078513,22.530732],[114.078291,22.530561],[114.078118,22.530415],[114.077927,22.530244],[114.07771,22.53002],[114.077545,22.529811],[114.077374,22.52957],[114.07724,22.52934],[114.077096,22.529031],[114.076972,22.528718],[114.076796,22.528217],[114.076682,22.52782],[114.076488,22.527501],[114.076416,22.527198],[114.076187,22.526557],[114.075836,22.525625],[114.075658,22.525045],[114.07548,22.52445],[114.07495,22.523013],[114.074821,22.522696],[114.07469,22.52238],[114.074351,22.521534],[114.074183,22.52108],[114.074049,22.52082],[114.073885,22.520577],[114.073569,22.520186],[114.073287,22.519891],[114.072995,22.519641],[114.0727,22.519406],[114.072405,22.519195],[114.07199,22.518938],[114.071596,22.518752],[114.071356,22.518662],[114.071136,22.518603],[114.070904,22.518544],[114.070182,22.518368],[114.069487,22.518172],[114.069177,22.518097],[114.068854,22.518033],[114.06853,22.517998],[114.068188,22.517981],[114.067684,22.517949],[114.067121,22.517902],[114.066504,22.517822],[114.064913,22.517641],[114.064457,22.517529],[114.06416,22.517376],[114.063953,22.517247],[114.063787,22.517131],[114.063575,22.516972],[114.063267,22.516767],[114.06288,22.516536],[114.062473,22.516264],[114.061756,22.515803],[114.060988,22.515307],[114.06033,22.514891],[114.060012,22.51466],[114.059632,22.514378],[114.059292,22.514093],[114.059076,22.513882],[114.058794,22.513578],[114.058629,22.513409],[114.058323,22.513055],[114.058085,22.512738],[114.057851,22.512411],[114.057645,22.512089],[114.057401,22.51167],[114.057165,22.511234],[114.056993,22.510827],[114.056861,22.510466],[114.056717,22.51004],[114.056612,22.50968],[114.056526,22.509294],[114.056473,22.508957],[114.056427,22.508592],[114.056395,22.508194],[114.056363,22.507445],[114.056333,22.50689],[114.056333,22.506456],[114.056298,22.506224],[114.056223,22.505998],[114.055925,22.505564],[114.05574,22.505322],[114.05552,22.505069],[114.055343,22.504863],[114.05508,22.504633],[114.054793,22.504452],[114.054461,22.504288],[114.053959,22.504083],[114.053487,22.503874],[114.052827,22.503604],[114.05227,22.503419],[114.051717,22.5033],[114.05136,22.50325],[114.050915,22.503223],[114.050352,22.50325],[114.049998,22.503295],[114.049531,22.503401]]]}},{"type":"Feature","properties":{},"geometry":{"type":"Polygon","coordinates":[[[114.096642,22.547452],[114.096699,22.547416],[114.096743,22.54734],[114.096795,22.547194],[114.096802,22.546951],[114.096709,22.546816],[114.096594,22.546745],[114.09652,22.546754],[114.096457,22.546762],[114.096464,22.546671],[114.096462,22.54658],[114.096899,22.546321],[114.097135,22.546229],[114.097337,22.546168],[114.097344,22.546386],[114.097327,22.546425],[114.097312,22.546459],[114.097336,22.546514],[114.097299,22.546504],[114.097268,22.546519],[114.097248,22.546605],[114.097291,22.546675],[114.097352,22.546722],[114.097433,22.546727],[114.097512,22.546709],[114.09762,22.546655],[114.097657,22.546608],[114.097681,22.546547],[114.097772,22.546099],[114.097838,22.545883],[114.097833,22.545823],[114.097807,22.545745],[114.097823,22.545697],[114.097851,22.545673],[114.097892,22.545658],[114.097969,22.54559],[114.098011,22.545548],[114.09803,22.545529],[114.098044,22.545514],[114.098052,22.545507],[114.09808,22.545479],[114.0982,22.545346],[114.098342,22.545202],[114.098472,22.545063],[114.098615,22.544932],[114.098754,22.544793],[114.098933,22.544633],[114.098985,22.544592],[114.09904,22.544563],[114.099103,22.54459],[114.099124,22.544654],[114.099068,22.544772],[114.099055,22.544834],[114.099034,22.545016],[114.099021,22.545415],[114.099022,22.545437],[114.099023,22.545457],[114.099034,22.545672],[114.098973,22.545789],[114.098748,22.54579],[114.098747,22.545885],[114.098819,22.545884],[114.09879,22.546155],[114.098826,22.546205],[114.098893,22.546269],[114.098969,22.546448],[114.098996,22.546518],[114.09894,22.546887],[114.098799,22.546878],[114.098585,22.546879],[114.098513,22.546934],[114.0985,22.546979],[114.098511,22.547026],[114.098465,22.547091],[114.098466,22.547256],[114.098473,22.547296],[114.098495,22.547316],[114.09854,22.547336],[114.098581,22.547349],[114.098627,22.547368],[114.098653,22.547374],[114.098653,22.547389],[114.098671,22.547403],[114.098722,22.547403],[114.098739,22.54739],[114.098742,22.547376],[114.098776,22.547368],[114.098829,22.547337],[114.098865,22.547325],[114.098926,22.547319],[114.098988,22.547318],[114.09901,22.547345],[114.099024,22.547413],[114.099035,22.54754],[114.099041,22.54763],[114.099023,22.547702],[114.098996,22.547726],[114.098957,22.547732],[114.098647,22.547766],[114.098524,22.547688],[114.098511,22.547672],[114.09851,22.547649],[114.098303,22.547567],[114.098055,22.54749],[114.097702,22.547516],[114.097469,22.547506],[114.097351,22.547526],[114.097304,22.54757],[114.097288,22.547633],[114.097141,22.547683],[114.096833,22.5477],[114.096724,22.54771],[114.096634,22.547741],[114.096597,22.547782],[114.096548,22.547911],[114.096517,22.548068],[114.096542,22.548322],[114.096585,22.548608],[114.096482,22.549004],[114.096259,22.549258],[114.095984,22.549273],[114.09591,22.54929],[114.095868,22.549356],[114.095768,22.549419],[114.095741,22.549461],[114.095728,22.549539],[114.095737,22.549571],[114.095802,22.549655],[114.095788,22.549689],[114.095754,22.5497],[114.095636,22.549692],[114.095567,22.549687],[114.095546,22.549674],[114.095523,22.549628],[114.095512,22.549559],[114.095572,22.549456],[114.095575,22.54942],[114.095494,22.549323],[114.095484,22.549255],[114.095505,22.549129],[114.095563,22.549052],[114.095602,22.548986],[114.095604,22.548934],[114.095652,22.548829],[114.09576,22.548675],[114.095824,22.54853],[114.095886,22.548328],[114.095975,22.548252],[114.096054,22.548245],[114.096105,22.548206],[114.096117,22.548136],[114.096106,22.548061],[114.096172,22.547929],[114.096212,22.547866],[114.096259,22.547672],[114.096282,22.547655],[114.096411,22.547635],[114.096461,22.547615],[114.096556,22.547527],[114.096642,22.547452]]]}},{"type":"Feature","properties":{},"geometry":{"type":"Polygon","coordinates":[[[114.095598,22.5486],[114.095547,22.548726],[114.095552,22.548761],[114.095564,22.548786],[114.095652,22.548829],[114.095604,22.548934],[114.095497,22.548893],[114.09545,22.548884],[114.095347,22.54889],[114.095279,22.549019],[114.094997,22.549224],[114.094851,22.549348],[114.094695,22.549437],[114.094527,22.54944],[114.094458,22.549416],[114.094666,22.549253],[114.094843,22.549127],[114.094963,22.548982],[114.095105,22.548924],[114.095196,22.548779],[114.095376,22.548469],[114.095584,22.548242],[114.095686,22.548019],[114.095749,22.547645],[114.095658,22.547421],[114.095532,22.547282],[114.09547,22.547245],[114.095615,22.546645],[114.095652,22.546638],[114.095652,22.546608],[114.095885,22.546598],[114.095882,22.546566],[114.096158,22.546563],[114.09622,22.546583],[114.096252,22.546675],[114.096277,22.546695],[114.096323,22.546694],[114.096464,22.546671],[114.096457,22.546762],[114.096397,22.546785],[114.096308,22.546823],[114.096257,22.546859],[114.096223,22.546908],[114.096172,22.546987],[114.096008,22.547128],[114.095949,22.54719],[114.095923,22.547348],[114.095943,22.547445],[114.095963,22.547542],[114.095931,22.54765],[114.09586,22.547856],[114.09588,22.547901],[114.095975,22.547955],[114.096015,22.547955],[114.096172,22.547929],[114.096106,22.548061],[114.096062,22.548035],[114.096007,22.548033],[114.095961,22.548049],[114.095891,22.548087],[114.095721,22.548213],[114.095638,22.548357],[114.095598,22.5486]]]}},{"type":"Feature","properties":{},"geometry":{"type":"Polygon","coordinates":[[[114.094107,22.549771],[114.09412,22.549699],[114.094187,22.549689],[114.09423,22.549766],[114.094359,22.549898],[114.094455,22.549957],[114.094815,22.550252],[114.094887,22.550252],[114.095161,22.550143],[114.095225,22.550165],[114.09526,22.550264],[114.095298,22.550324],[114.095298,22.550433],[114.095335,22.550542],[114.095416,22.550636],[114.095464,22.550705],[114.095442,22.550767],[114.095343,22.550804],[114.095255,22.550765],[114.09519,22.550732],[114.095096,22.550735],[114.09497,22.550665],[114.094812,22.550601],[114.094815,22.550403],[114.094136,22.550391],[114.094056,22.550455],[114.093771,22.55046],[114.093747,22.550438],[114.093777,22.550378],[114.093871,22.550274],[114.094005,22.550098],[114.094082,22.549937],[114.094107,22.549771]]]}}]}